TDRS 3                  
1 19548U 88091B   26154.41462376 -.00000292  00000+0  00000+0 0  9996
2 19548  12.6126 341.0924 0038786 356.7723  14.2689  1.00279508125252
FLTSATCOM 8 (USA 46)    
1 20253U 89077A   26154.44915182 -.00000362  00000+0  00000+0 0  9995
2 20253  12.4253 351.2499 0005693  32.4995 155.1537  1.00261151260427
SKYNET 4C               
1 20776U 90079A   26154.14585213  .00000132  00000+0  00000+0 0  9998
2 20776  13.3450 349.9096 0002911  83.2629 264.3105  1.00271262130740
TDRS 5                  
1 21639U 91054B   26154.48065503  .00000090  00000+0  00000+0 0  9996
2 21639  14.0730 353.8805 0005903 280.3991 343.0423  1.00269965127578
TDRS 6                  
1 22314U 93003B   26154.42038699 -.00000289  00000+0  00000+0 0  9994
2 22314  14.1828 357.1637 0007168 179.7978 180.3825  1.00276402122262
UFO 2 (USA 95)          
1 22787U 93056A   26154.21612875  .00000131  00000+0  00000+0 0  9992
2 22787  11.8903   3.6349 0006645   3.5794 350.9061  1.00270046118402
USA 99 (MILSTAR-1 1)    
1 22988U 94009A   26154.15564552  .00000002  00000+0  00000+0 0  9992
2 22988  17.6060  27.8515 0000457 224.4147 138.7527  0.98720573 32817
UFO 4 (USA 108)         
1 23467U 95003A   26154.48512558 -.00000015  00000+0  00000+0 0  9990
2 23467   9.7045  13.2799 0002998  50.4584 175.0544  1.00270359114812
TDRS 7                  
1 23613U 95035B   26154.65118517 -.00000232  00000+0  00000+0 0  9995
2 23613  13.3828 348.2860 0011030  74.5327 152.8560  1.00268020113119
USA 115 (MILSTAR-1 2)   
1 23712U 95060A   26154.62982134 -.00000160  00000+0  00000+0 0  9994
2 23712  14.0681   3.8497 0001629 116.2540 259.9533  1.00367082 32755
INMARSAT 3-F1           
1 23839U 96020A   26154.20252951 -.00000195  00000+0  00000+0 0  9990
2 23839  10.5733  46.7639 0003487  30.0917 167.2639  0.99981502110114
INMARSAT 3-F2           
1 24307U 96053A   26154.59788067 -.00000143  00000+0  00000+0 0  9994
2 24307   9.8277  54.0758 0006674  17.8020 197.8974  1.00004601108782
INMARSAT 3-F3           
1 24674U 96070A   26153.79407657  .00000099  00000+0  00000+0 0  9993
2 24674  10.2882  49.7916 0003554   9.7125 175.3061  0.99976556107763
AMC-3                   
1 24936U 97050A   26153.33139185 -.00000254  00000+0  00000+0 0  9995
2 24936   8.1093  64.2608 0003341  16.7338 217.0861  1.00270299 52284
USA 134                 
1 25019U 97065A   26154.42062515 -.00000058  00000+0  00000+0 0  9999
2 25019  12.7680  21.8256 0003989 343.1215 286.1924  1.00271873 32810
INMARSAT 3-F5           
1 25153U 98006B   26154.14558778 -.00000283  00000+0  00000+0 0  9994
2 25153   9.6622  53.3987 0005051  14.0405 182.6113  1.00274252103754
ABS-6                   
1 25924U 99053A   26154.52715478 -.00000108  00000+0  00000+0 0  9993
2 25924   0.0113 309.8270 0003086 118.2425 172.7028  1.00270267 97703
UFO 10 (USA 146)        
1 25967U 99063A   26153.99200895 -.00000181  00000+0  00000+0 0  9994
2 25967   9.8534  27.2872 0001940  17.6670 180.6760  1.00273735 97203
ASIASTAR                
1 26107U 00016A   26153.73216435 -.00000326  00000+0  00000+0 0  9991
2 26107   9.0969  58.3097 0005119  15.9139 185.5731  1.00270505 95775
USA 149 (DSP 20)        
1 26356U 00024A   26154.53978383  .00000100  00000+0  00000+0 0  9991
2 26356  13.1603  11.9497 0001666 325.1418 303.8488  1.00270248 32779
TDRS 8                  
1 26388U 00034A   26154.01667686 -.00000189  00000+0  00000+0 0  9999
2 26388  12.6621  31.4440 0005023   7.9644 302.8737  1.00269829 95037
NSS-11                  
1 26554U 00059A   26154.53901771  .00000036  00000+0  00000+0 0  9994
2 26554   2.0913  81.5488 0003275 350.0570 190.4283  1.00271903 41151
USA 153                 
1 26575U 00065A   26154.52230144 -.00000317  00000+0  00000+0 0  9995
2 26575  11.6015  35.5353 0003273  43.0303 135.9464  1.00273319 32792
AMC-6                   
1 26580U 00067A   26154.40739282  .00000100  00000+0  00000+0 0  9996
2 26580   0.1175  83.0070 0003885 359.8809 180.6094  1.00274096 93752
USA 157 (MILSTAR-2 2)   
1 26715U 01009A   26154.54236777  .00000116  00000+0  00000+0 0  9996
2 26715  11.5277  19.8492 0038687 176.8369 100.5199  1.00269841 32800
USA 159 (DSP 21)        
1 26880U 01033A   26154.41687711 -.00000258  00000+0  00000+0 0  9998
2 26880  12.7690  16.5365 0001453 109.8766 237.6969  0.99202177 32810
INTELSAT 902 (IS-902)   
1 26900U 01039A   26154.22646877 -.00000273  00000+0  00000+0 0  9991
2 26900   6.0832  71.9509 0004267 357.2778 213.8822  1.00272070 90551
USA 164 (MILSTAR-2 3)   
1 27168U 02001A   26154.35653471  .00000104  00000+0  00000+0 0  9992
2 27168  11.1631  21.9912 0099691   8.1477   8.9460  1.00273083 32820
INTELSAT 904 (IS-904)   
1 27380U 02007A   26154.06163051 -.00000216  00000+0  00000+0 0  9997
2 27380   6.8851  69.3529 0007340 357.7666 175.1106  1.00271240 51620
DIRECTV 5 (TEMPO 1)     
1 27426U 02023A   26154.62667259 -.00000047  00000+0  00000+0 0  9999
2 27426   4.8432  75.4778 0003563   3.0335 289.0745  1.00271884 87981
INTELSAT 905 (IS-905)   
1 27438U 02027A   26154.63287483  .00000103  00000+0  00000+0 0  9996
2 27438   6.7196  69.9626 0004265  10.2968 262.4516  1.00271994 51225
GALAXY 3C (G-3C)        
1 27445U 02030A   26153.90650314 -.00000142  00000+0  00000+0 0  9998
2 27445   3.6937  78.1692 0002027  27.5835  17.1083  1.00271823 46358
INTELSAT 906 (IS-906)   
1 27513U 02041A   26154.36580809  .00000022  00000+0  00000+0 0  9994
2 27513   5.7690  73.0896 0004617 355.6971  18.8893  1.00273390 86897
NIMIQ 2                 
1 27632U 02062A   26154.62186019 -.00000061  00000+0  00000+0 0  9997
2 27632   9.4151  57.0443 0006021  12.1723 297.5396  1.00272273 44047
USA 167                 
1 27691U 03008A   26153.12769638  .00000009  00000+0  00000+0 0  9992
2 27691  10.9321  43.5440 0004104 318.8019 172.4644  1.00275163  6629
USA 169 (MILSTAR-2 4)   
1 27711U 03012A   26154.47787528 -.00000240  00000+0  00000+0 0  9995
2 27711  12.3289  29.9530 0101451   8.6873 177.4802  1.00271908 32818
ASIASAT 4               
1 27718U 03014A   26154.58704392 -.00000212  00000+0  00000+0 0  9993
2 27718   4.6708  75.9132 0002839   1.5492 173.4516  1.00271448 45162
HELLAS-SAT 2            
1 27811U 03020A   26154.56497176 -.00000075  00000+0  00000+0 0  9998
2 27811   7.3212  68.0459 0002918 358.0160  19.3476  1.00272337 42710
THURAYA-2               
1 27825U 03026A   26154.21924876  .00000132  00000+0  00000+0 0  9996
2 27825   8.8196  32.0386 0003613  15.2040 327.3784  1.00284036 84207
OPTUS C1                
1 27831U 03028B   26154.60669471 -.00000142  00000+0  00000+0 0  9997
2 27831   6.8560  69.5733 0005945 359.0038 197.6191  1.00271091 52925
USA 170                 
1 27875U 03040A   26153.88100184  .00000133  00000+0  00000+0 0  9998
2 27875  10.4714  48.0824 0001660 290.0418 254.6355  1.00277141 32852
GALAXY 13 (HORIZONS-1)  
1 27954U 03044A   26154.61664509  .00000144  00000+0  00000+0 0  9990
2 27954   1.3851  84.0221 0002056 340.5132 259.5126  1.00271114 46439
YAMAL 202               
1 28089U 03053A   26154.57701784 -.00000070  00000+0  00000+0 0  9991
2 28089   6.3107  71.1000 0003228 343.8606 208.3738  1.00272580 82567
UFO 11 (USA 174)        
1 28117U 03057A   26153.79355846 -.00000097  00000+0  00000+0 0  9993
2 28117   8.9371  33.9013 0002323  39.4449 179.1155  1.00273527 82300
USA 176 (DSP 22)        
1 28158U 04004A   26154.55621839 -.00000291  00000+0  00000+0 0  9990
2 28158  12.0439  26.1713 0001237 316.2441  55.9638  1.00410712 32804
ABS-4 (MOBISAT-1)       
1 28184U 04007A   26153.79476991  .00000049  00000+0  00000+0 0  9994
2 28184   6.0064  72.1800 0005082 356.7677 169.4102  1.00269914 52197
INTELSAT 10-02          
1 28358U 04022A   26154.56679177  .00000001  00000+0  00000+0 0  9999
2 28358   0.0106 356.7814 0000197  52.5764  45.7078  1.00270348 80425
ANIK F2                 
1 28378U 04027A   26154.62675061 -.00000039  00000+0  00000+0 0  9993
2 28378   3.2518  79.6266 0004610 359.1674 287.7934  1.00272424 41121
AMC-15                  
1 28446U 04041A   26154.43034774 -.00000077  00000+0  00000+0 0  9996
2 28446   0.0173 330.2476 0002468 100.0396 231.4805  1.00271485 79165
NSS-10                  
1 28526U 05003A   26154.14273170 -.00000242  00000+0  00000+0 0  9991
2 28526   6.4147  70.6239 0003175 359.2820 195.6323  1.00271053 53016
INMARSAT 4-F1           
1 28628U 05009A   26154.59406778  .00000043  00000+0  00000+0 0  9999
2 28628   5.1497  42.7333 0003027  32.8336 208.4668  1.00272468 77539
DIRECTV 8               
1 28659U 05019A   26154.43520148  .00000013  00000+0  00000+0 0  9992
2 28659   0.0182 317.6196 0003505 125.8468 206.0512  1.00271936 76933
GALAXY 28 (G-28)        
1 28702U 05022A   26154.41904378 -.00000188  00000+0  00000+0 0  9998
2 28702   3.2634  79.1051 0003426 356.7478 299.7891  1.00276154 51835
THAICOM 4               
1 28786U 05028A   26154.59061316 -.00000350  00000+0  00000+0 0  9992
2 28786   0.2104  86.1589 0002134 344.7910 153.2299  1.00271859 52118
ANIK F1R                
1 28868U 05036A   26154.62760604 -.00000065  00000+0  00000+0 0  9995
2 28868   4.2780  76.7462 0004528 358.8701 295.1176  1.00273017 46314
SYRACUSE 3A             
1 28885U 05041B   26154.43360384  .00000138  00000+0  00000+0 0  9990
2 28885   4.6087  76.0024 0003105 352.6942  25.9793  1.00284296 75613
INMARSAT 4-F2           
1 28899U 05044A   26154.59537985 -.00000251  00000+0  00000+0 0  9995
2 28899   5.0773  43.7191 0003274  29.2352 176.9272  1.00270756 75389
METEOSAT-9 (MSG-2)      
1 28912U 05049B   26153.93181330  .00000131  00000+0  00000+0 0  9998
2 28912   9.3297  54.3074 0001283   6.0478 212.2961  1.00278852  6851
EUTELSAT 174A           
1 28924U 05052A   26154.53010147  .00000019  00000+0  00000+0 0  9994
2 28924   4.1850  76.6924 0006617 356.5417 183.6189  1.00269337 52194
ECHOSTAR 10             
1 28935U 06003A   26154.43243622 -.00000044  00000+0  00000+0 0  9997
2 28935   0.0224  17.6107 0001612  42.7228 237.0494  1.00272508 74324
SPAINSAT                
1 28945U 06007A   26154.38446546 -.00000205  00000+0  00000+0 0  9995
2 28945   0.5273  86.7819 0005126 345.7289 287.5494  1.00271177 74071
JCSAT-5A                
1 29045U 06010A   26154.59312650 -.00000316  00000+0  00000+0 0  9995
2 29045   1.0741  84.3617 0002209 359.6296 153.6324  1.00273238 73636
ASTRA 1KR               
1 29055U 06012A   26154.57069179  .00000131  00000+0  00000+0 0  9995
2 29055   0.4386  83.1914 0003734 348.3320  44.9511  1.00272546 45561
GALAXY 16 (G-16)        
1 29236U 06023A   26154.61801635 -.00000115  00000+0  00000+0 0  9997
2 29236   0.0257 213.3797 0003186 228.8712 293.3127  1.00273956 72838
EUTELSAT 33F            
1 29270U 06032A   26154.57346514  .00000167  00000+0  00000+0 0  9996
2 29270   1.6264  82.3942 0003684 345.1819  63.9909  1.00272873 47176
JCSAT-3A                
1 29272U 06033A   26154.61339037 -.00000333  00000+0  00000+0 0  9992
2 29272   0.0106   0.0575 0002132  71.6346 169.1972  1.00271030 47609
KOREASAT 5 (MUGUNGWHA 5)
1 29349U 06034A   26154.58931316 -.00000346  00000+0  00000+0 0  9996
2 29349   1.7501  83.1501 0001733  29.6143 104.4841  1.00270116 41184
DIRECTV 9S              
1 29494U 06043A   26154.61932439 -.00000102  00000+0  00000+0 0  9998
2 29494   2.3857  81.0638 0005222   2.7356 290.0485  1.00272069 51242
OPTUS D1                
1 29495U 06043B   26154.63324942 -.00000172  00000+0  00000+0 0  9992
2 29495   3.0000  79.8210 0003877 348.8042 203.4299  1.00272938 71981
BADR-4                  
1 29526U 06051A   26153.87544968  .00000166  00000+0  00000+0 0  9995
2 29526   1.9664  81.2933 0007686 158.1112 354.3784  1.00437401 51127
WILDBLUE-1              
1 29643U 06054A   26154.54680730 -.00000038  00000+0  00000+0 0  9990
2 29643   2.7679  80.6518 0001796   0.6302 256.3676  1.00271630 53653
SKYNET 5A               
1 30794U 07007B   26154.30059178 -.00000261  00000+0  00000+0 0  9996
2 30794   5.2666  73.9066 0004039   6.3916  14.8868  1.00269492 70568
ANIK F3                 
1 31102U 07009A   26154.62570667  .00000011  00000+0  00000+0 0  9990
2 31102   1.1623  84.0089 0002886 347.0682 287.5425  1.00270794 46424
ASTRA 1L                
1 31306U 07016A   26154.34821468 -.00000172  00000+0  00000+0 0  9990
2 31306   1.2861  81.6908 0005499   0.4647 270.5268  1.00271722 44845
GALAXY 17 (G-17)        
1 31307U 07016B   26154.55015169 -.00000195  00000+0  00000+0 0  9992
2 31307   2.9379  80.0712 0005013  11.6854 273.3086  1.00270992 69664
INTELSAT 11 (IS-11)     
1 32253U 07044B   26154.57180019 -.00000110  00000+0  00000+0 0  9990
2 32253   3.5301  78.8334 0001567  72.5832 132.0718  0.99053295 68310
WGS F1 (USA 195)        
1 32258U 07046A   26154.48722918 -.00000255  00000+0  00000+0 0  9997
2 32258   0.0530  95.7294 0000752 329.0807 320.0578  1.00273548 52191
SKYNET 5B               
1 32294U 07056B   26154.50057590  .00000150  00000+0  00000+0 0  9991
2 32294   5.2189  73.6639 0003761 354.7551  28.8320  1.00273456 68069
ASTRA 4A                
1 32299U 07057A   26154.56791844  .00000045  00000+0  00000+0 0  9993
2 32299   0.0153  11.5862 0002600  65.3138  24.3809  1.00272431 51511
HORIZONS-2              
1 32388U 07063B   26154.34211516 -.00000242  00000+0  00000+0 0  9998
2 32388   2.5665  80.7967 0004146 354.2739 226.0998  1.00269964 67674
THURAYA-3               
1 32404U 08001A   26154.58455851 -.00000161  00000+0  00000+0 0  9998
2 32404   5.9664  35.7799 0000791 146.1183   9.4943  1.00010505 67358
THOR 5                  
1 32487U 08006A   26154.28161169  .00000000  00000+0  00000+0 0  9998
2 32487   0.0144 322.5380 0002838 120.8407 268.9898  1.00270084 67174
AMC-14                  
1 32708U 08011A   26147.73428900 -.00000002  00000+0  00000+0 0  9994
2 32708  23.9628  20.7255 0049976  92.2727  95.7206  1.00350219 67965
DIRECTV 11              
1 32729U 08013A   26154.61801184 -.00000113  00000+0  00000+0 0  9996
2 32729   0.0169 152.8196 0000602 230.8039 351.7589  1.00269515 45451
ICO G1                  
1 32763U 08016A   26154.26337024 -.00000162  00000+0  00000+0 0  9999
2 32763   5.5336  36.1887 0002221  23.2896 194.1943  1.00271085 66406
VINASAT-1               
1 32767U 08018A   26154.59303984 -.00000316  00000+0  00000+0 0  9990
2 32767   0.0183 305.6419 0001472 140.6853 151.1674  1.00269026 66450
STAR ONE C2             
1 32768U 08018B   26154.48280916 -.00000265  00000+0  00000+0 0  9991
2 32768   1.2061  82.5876 0002991 355.6311 282.5469  1.00270559 66512
AMOS-3                  
1 32794U 08022A   26154.57268513  .00000168  00000+0  00000+0 0  9995
2 32794   0.4201  86.4560 0001816  55.1279 345.6534  1.00469692 82207
GALAXY 18 (G-18)        
1 32951U 08024A   26154.62770347  .00000037  00000+0  00000+0 0  9996
2 32951   0.0167  10.7876 0003324  70.4784 273.7864  1.00271542 45713
ZHONGXING-9             
1 33051U 08028A   26154.65651344 -.00000237  00000+0  00000+0 0  9993
2 33051   0.7348  85.5341 0004929 327.5535 167.7541  1.00270426 65909
SKYNET 5C               
1 33055U 08030A   26154.42086378 -.00000129  00000+0  00000+0 0  9994
2 33055   3.7538  77.2022 0004305   4.0713 304.3482  1.00271462 65818
TURKSAT 3A              
1 33056U 08030B   26154.43256384  .00000158  00000+0  00000+0 0  9993
2 33056   0.0652  83.9830 0005510 339.4432  26.1734  1.00271028 52227
INTELSAT 25 (IS-25)     
1 33153U 08034A   26154.60305900 -.00000133  00000+0  00000+0 0  9997
2 33153   2.6732  80.4969 0001990  32.6532 178.4051  0.99025476 65552
ECHOSTAR 11             
1 33207U 08035A   26154.62216874 -.00000046  00000+0  00000+0 0  9994
2 33207   0.9699  84.3337 0002722 332.8366 309.0954  1.00271935 51073
SUPERBIRD-C2            
1 33274U 08038A   26154.59390650 -.00000295  00000+0  00000+0 0  9998
2 33274   2.3259  81.4288 0006153  20.3509 140.0687  1.00270587105593
INMARSAT 4-F3           
1 33278U 08039A   26154.63012735 -.00000130  00000+0  00000+0 0  9991
2 33278   4.2815  31.5753 0002750  46.0370 303.3161  1.00271062 46403
NIMIQ 4                 
1 33373U 08044A   26154.55067169 -.00000208  00000+0  00000+0 0  9991
2 33373   0.0033 359.4944 0002054  55.3729 313.3907  1.00271786 64847
GALAXY 19 (G-19)        
1 33376U 08045A   26154.61732237  .00000000  00000+0  00000+0 0  9996
2 33376   0.0150   7.8470 0003534  82.4238 287.0425  1.00268728 64763
ASTRA 1M                
1 33436U 08057A   26154.57077846  .00000133  00000+0  00000+0 0  9996
2 33436   0.2613  82.2501 0005081  16.5788  18.0639  1.00272859 45606
EUTELSAT HOTBIRD 13C    
1 33459U 08065A   26154.48566917 -.00000272  00000+0  00000+0 0  9997
2 33459   2.9151  79.3523 0004088 355.5052 301.6227  1.00270645 47207
EXPRESS-AM44            
1 33595U 09007A   26154.63607917 -.00000078  00000+0  00000+0 0  9992
2 33595   3.4294  78.5586 0004462 348.7066  42.8193  1.00272164 52151
NSS-9                   
1 33749U 09008A   26154.57275146  .00000083  00000+0  00000+0 0  9997
2 33749   1.2265  82.7822 0002431 339.2123 219.3053  1.00270287 63386
TELSTAR 11N             
1 34111U 09009A   26154.41687711 -.00000238  00000+0  00000+0 0  9993
2 34111   0.0174 346.6684 0002885  75.8909 301.8501  1.00273291 46106
WGS F2 (USA 204)        
1 34713U 09017A   26154.57831848  .00000080  00000+0  00000+0 0  9993
2 34713   0.0179 330.0725 0000612 251.6714 296.0081  1.00272099 45489
SES-7 (PROTOSTAR 2)     
1 34941U 09027A   26154.58835983 -.00000333  00000+0  00000+0 0  9994
2 34941   0.0539  77.2986 0000864  65.2630  69.5614  1.00271702 62491
MEASAT-3A               
1 35362U 09032A   26154.58327848 -.00000098  00000+0  00000+0 0  9992
2 35362   0.0228 337.8509 0003307  91.7709 192.3975  1.00272602  7894
GOES 14                 
1 35491U 09033A   26154.60920412 -.00000222  00000+0  00000+0 0  9994
2 35491   1.6552  83.2032 0002158 358.5911 179.1557  1.00115819  6455
FM-5                    
1 35493U 09034A   26154.54989169 -.00000188  00000+0  00000+0 0  9995
2 35493   0.0119 299.2919 0000328 343.6383  80.8712  1.00269795 46501
TERRESTAR-1             
1 35496U 09035A   26154.40183520 -.00000046  00000+0  00000+0 0  9994
2 35496   5.1752  48.8098 0002813  17.2915 219.4016  1.00271627 61999
ASIASAT 5               
1 35696U 09042A   26154.62527277 -.00000295  00000+0  00000+0 0  9995
2 35696   0.0120  72.7796 0001482 351.5784 153.3233  1.00273672 61577
JCSAT-12 (JCSAT-RA)     
1 35755U 09044A   26154.59312650 -.00000316  00000+0  00000+0 0  9990
2 35755   0.0206  41.7923 0000394 333.2879 222.5318  1.00271308 61475
OPTUS D3                
1 35756U 09044B   26154.47988255 -.00000133  00000+0  00000+0 0  9995
2 35756   0.8617 270.1039 0003538 165.7556 144.9781  1.00270729 61421
NIMIQ 5                 
1 35873U 09050A   26154.48124914 -.00000245  00000+0  00000+0 0  9991
2 35873   0.0156   8.1740 0003218  67.4074 276.9127  1.00270899 61201
AMAZONAS 2              
1 35942U 09054A   26154.55301170 -.00000240  00000+0  00000+0 0  9996
2 35942   1.7799  83.2152 0000408  45.6015 251.9073  1.00123965 61047
COMSATBW-1              
1 35943U 09054B   26154.57944516  .00000037  00000+0  00000+0 0  9999
2 35943   0.0500  71.6271 0003190   4.5040  87.5151  1.00271259 61170
NSS-12                  
1 36032U 09058A   26154.57823182  .00000083  00000+0  00000+0 0  9999
2 36032   0.0924  70.2947 0005135 334.6297 112.2786  1.00271780 60782
THOR 6                  
1 36033U 09058B   26154.28161169  .00000002  00000+0  00000+0 0  9999
2 36033   0.0173  71.6582 0002214  19.2377 261.3809  1.00271633 60867
INTELSAT 14 (IS-14)     
1 36097U 09064A   26154.48670918 -.00000261  00000+0  00000+0 0  9993
2 36097   0.0127 301.1922 0002974 145.9189 295.0584  1.00271758 60464
EUTELSAT 36B            
1 36101U 09065A   26154.57693182  .00000124  00000+0  00000+0 0  9995
2 36101   0.4570  80.9530 0005952 350.7483  78.5505  1.00274549 60575
INTELSAT 15 (IS-15)     
1 36106U 09067A   26154.58386517 -.00000173  00000+0  00000+0 0  9999
2 36106   0.0109 304.7168 0002510 131.2597 111.4026  1.00270942 41097
WGS F3 (USA 211)        
1 36108U 09068A   26154.55435653  .00000076  00000+0  00000+0 0  9996
2 36108   0.3409  85.9252 0000781 350.0191 245.6603  1.00272181 46459
DIRECTV 12              
1 36131U 09075A   26154.62875175 -.00000092  00000+0  00000+0 0  9994
2 36131   0.0139  92.1000 0000512 323.3071 320.3145  1.00273734 46418
BEIDOU-2 G1             
1 36287U 10001A   26154.59477318 -.00000270  00000+0  00000+0 0  9998
2 36287   4.2621  60.4506 0002675 312.5948 233.5634  1.00269819 60037
SDO                     
1 36395U 10005A   26154.33278793 -.00000074  00000+0  00000+0 0  9992
2 36395  34.6232  86.5527 0001321  44.7554 138.3260  1.00271499 59928
INTELSAT 16 (IS-16)     
1 36397U 10006A   26154.55188503 -.00000234  00000+0  00000+0 0  9996
2 36397   0.0108  14.2468 0002765  83.8902 276.3759  1.00285786 59510
EWS-G2 (GOES 15)        
1 36411U 10008A   26154.57953183  .00000031  00000+0  00000+0 0  9995
2 36411   1.2405  83.0929 0005516  34.9579  46.1548  1.00276023 59502
ECHOSTAR 14             
1 36499U 10010A   26154.62562815  .00000012  00000+0  00000+0 0  9997
2 36499   0.0370  80.9936 0002601   4.8852 272.5316  1.00271709 46412
SES-1                   
1 36516U 10016A   26154.61870828 -.00000103  00000+0  00000+0 0  9990
2 36516   0.0116 339.4982 0003001  96.0049 298.3163  1.00272232 58892
ASTRA 3B                
1 36581U 10021A   26154.57164513  .00000149  00000+0  00000+0 0  9999
2 36581   1.4355  83.7163 0004417 347.3961  50.1840  1.00272072 58732
COMSATBW-2              
1 36582U 10021B   26154.56956512  .00000101  00000+0  00000+0 0  9995
2 36582   0.0117 358.0998 0003322  91.8140  20.3843  1.00277450 58829
BEIDOU-2 G3             
1 36590U 10024A   26154.65408676 -.00000126  00000+0  00000+0 0  9998
2 36590   4.4842  61.5754 0008578 349.4402 156.2486  1.00273757 58635
BADR-5                  
1 36592U 10025A   26154.57294513  .00000166  00000+0  00000+0 0  9998
2 36592   0.0860 105.3885 0002765  74.8124 308.5613  1.00276238 53088
COMS 1                  
1 36744U 10032A   26152.73864208 -.00000334  00000+0  00000+0 0  9993
2 36744   4.7700  75.5552 0001064 351.7830 216.9341  1.00271905 50939
ARABSAT-5A              
1 36745U 10032B   26154.28776506  .00000166  00000+0  00000+0 0  9991
2 36745   0.0629  43.9598 0005466  54.1689 287.7175  1.00273184 58507
ECHOSTAR 15             
1 36792U 10034A   26154.62561544  .00000012  00000+0  00000+0 0  9997
2 36792   0.0552  80.9646 0002045 346.2843 291.2480  1.00271395 58181
BEIDOU-2 IGSO-1         
1 36828U 10036A   26154.44594514 -.00000060  00000+0  00000+0 0  9996
2 36828  54.3006 163.0834 0058906 224.9417 132.0457  1.00276655 57959
NILESAT 201             
1 36830U 10037A   26154.35168135 -.00000045  00000+0  00000+0 0  9999
2 36830   0.0163 243.7419 0004416 216.8640 270.8176  1.00272132 58231
RASCOM-QAF 1R           
1 36831U 10037B   26154.35358803  .00000030  00000+0  00000+0 0  9996
2 36831   0.0100 315.9710 0006481 112.2365 313.7974  1.00269678 58162
AEHF-1 (USA 214)        
1 36868U 10039A   26153.97514435  .00000156  00000+0  00000+0 0  9999
2 36868   8.1841  68.2299 0004380   3.2661 200.9665  1.00268773 53510
XM-5                    
1 37185U 10053A   26154.43381720 -.00000011  00000+0  00000+0 0  9990
2 37185   0.0638 274.2162 0003400 275.7377 102.9147  1.00270298 57344
BSAT-3B                 
1 37207U 10056B   26154.51738931 -.00000338  00000+0  00000+0 0  9999
2 37207   0.0599 243.3671 0001223 278.2131  26.4882  1.00270249 51968
BEIDOU-2 G4             
1 37210U 10057A   26154.59858653 -.00000101  00000+0  00000+0 0  9994
2 37210   3.6138  69.0293 0004834 204.3021 354.2282  1.00272502 57159
SKYTERRA 1              
1 37218U 10061A   26154.62928373 -.00000108  00000+0  00000+0 0  9995
2 37218   5.0963  50.8673 0003045  15.1489 311.2973  1.00271321 57055
HYLAS 1                 
1 37237U 10065A   26154.07036740  .00000100  00000+0  00000+0 0  9998
2 37237   5.6080  73.1908 0001318 324.8333 252.6462  1.00272813  6748
INTELSAT 17 (IS-17)     
1 37238U 10065B   26154.58005183  .00000011  00000+0  00000+0 0  9993
2 37238   0.0104 279.8189 0002378 155.9962  91.0326  1.00271629 53110
BEIDOU-2 IGSO-2         
1 37256U 10068A   26149.93047685 -.00000227  00000+0  00000+0 0  9992
2 37256  47.5822 272.0579 0055238 212.8050 204.6695  1.00287198 56612
EUTELSAT KA-SAT 9A      
1 37258U 10069A   26154.56852512  .00000073  00000+0  00000+0 0  9991
2 37258   0.0606   9.4015 0003997 119.5848 336.7036  1.00270511 43879
HISPASAT 30W-5          
1 37264U 10070A   26154.41843711 -.00000204  00000+0  00000+0 0  9992
2 37264   0.0579 115.7496 0005231 338.8781 277.9121  1.00272056 53041
KOREASAT 6              
1 37265U 10070B   26154.58327810 -.00000099  00000+0  00000+0 0  9990
2 37265   0.0138  23.5380 0002450  54.2337 184.1404  1.00272299 56637
BEIDOU-2 IGSO-3         
1 37384U 11013A   26154.69025677 -.00000180  00000+0  00000+0 0  9999
2 37384  62.3886  40.2803 0034401 185.8620  22.5488  1.00271806 55520
INTELSAT 28 (IS-28)     
1 37392U 11016A   26154.34674133 -.00000213  00000+0  00000+0 0  9997
2 37392   1.7704  82.7923 0004120 349.6923 272.4825  1.00270651 53144
YAHSAT 1A               
1 37393U 11016B   26154.50603593  .00000000  00000+0  00000+0 0  9991
2 37393   0.0155 348.8092 0003226  90.0246  47.7920  1.00270715 42273
SBIRS GEO-1 (USA 230)   
1 37481U 11019A   26154.43464385  .00000110  00000+0  00000+0 0  9990
2 37481   4.5069  53.1320 0002108   9.8119  37.2186  1.00271442 55268
TELSTAR 14R             
1 37602U 11021A   26154.26930497 -.00000268  00000+0  00000+0 0  9996
2 37602   0.0409  80.7477 0002772 344.9155 220.0231  1.00275264 55697
GSAT-8                  
1 37605U 11022A   26154.22141544  .00000096  00000+0  00000+0 0  9991
2 37605   2.0951  81.9936 0002299 225.7304  78.7522  1.00273894 53071
ST-2                    
1 37606U 11022B   26154.58438517  .00000000  00000+0  00000+0 0  9995
2 37606   0.0173   1.8599 0001964  85.7804 102.8035  1.00269993 55142
ZHONGXING-10            
1 37677U 11026A   26154.65521344 -.00000177  00000+0  00000+0 0  9992
2 37677   1.0124  84.3638 0003693 352.9271 136.2437  1.00272157 54866
SES-3                   
1 37748U 11035A   26154.62867630 -.00000090  00000+0  00000+0 0  9993
2 37748   1.2916  83.2356 0002924 343.8430 308.3343  1.00271648 54450
KAZSAT-2                
1 37749U 11035B   26154.44152513 -.00000186  00000+0  00000+0 0  9997
2 37749   0.0377 251.3678 0001111 236.7419   9.2696  1.00271228 53268
BEIDOU-2 IGSO-4         
1 37763U 11038A   26151.51943152  .00000047  00000+0  00000+0 0  9993
2 37763  54.5976 165.8209 0158670 231.3955 131.4280  1.00288616 54482
ASTRA 1N                
1 37775U 11041A   26154.57077846  .00000132  00000+0  00000+0 0  9992
2 37775   0.1051  50.7340 0006225  33.3301  32.6494  1.00273256 44399
BSAT-3C (JCSAT-110R)    
1 37776U 11041B   26154.51747597 -.00000338  00000+0  00000+0 0  9993
2 37776   0.0156 356.3987 0000617 143.6950  48.1385  1.00270816 50332
PAKSAT-1R               
1 37779U 11042A   26154.57450514  .00000166  00000+0  00000+0 0  9991
2 37779   0.6535  84.7334 0003507 341.5452  70.5418  1.00272971 54342
SES-2                   
1 37809U 11049A   26154.54971836 -.00000184  00000+0  00000+0 0  9995
2 37809   0.0493 110.5273 0002968 322.1496 290.2374  1.00271912 53824
ARABSAT-5C              
1 37810U 11049B   26154.57095179  .00000135  00000+0  00000+0 0  9992
2 37810   0.0544  18.0454 0003166  71.9332  27.5798  1.00271813 53905
EUTELSAT 7 WEST A       
1 37816U 11051A   26154.56540510 -.00000048  00000+0  00000+0 0  9998
2 37816   0.0618 342.8161 0004379 103.4608   1.9839  1.00271003 53745
QUETZSAT 1              
1 37826U 11054A   26154.55171170 -.00000230  00000+0  00000+0 0  9996
2 37826   0.0363  57.9007 0002944  17.6396 298.0932  1.00271142 49733
INTELSAT 18 (IS-18)     
1 37834U 11056A   26154.60262567  .00000065  00000+0  00000+0 0  9999
2 37834   0.0156 289.5168 0002293 153.5746 205.9180  1.00271701 53670
EUTELSAT 16A            
1 37836U 11057A   26154.49875590  .00000116  00000+0  00000+0 0  9992
2 37836   0.0437 338.4606 0005943  99.3873   9.6826  1.00273906  7201
VIASAT-1                
1 37843U 11059A   26154.43381633 -.00000012  00000+0  00000+0 0  9992
2 37843   0.0182 326.9012 0002581 109.6686 216.4020  1.00271299 47189
ASIASAT 7               
1 37933U 11069A   26154.58783981 -.00000322  00000+0  00000+0 0  9995
2 37933   0.0172 306.5372 0001746 114.6218 148.0393  1.00272421 44728
BEIDOU-2 IGSO-5         
1 37948U 11073A   26154.66657902 -.00000165  00000+0  00000+0 0  9993
2 37948  47.7038 271.7146 0113197 221.7139  90.3991  1.00276321 52995
LUCH-5A                 
1 37951U 11074B   26154.59997321 -.00000040  00000+0  00000+0 0  9994
2 37951   8.7196  74.0070 0002541   6.8666 194.2060  1.00269907 52913
NIGCOMSAT 1R            
1 38014U 11077A   26154.57537181  .00000157  00000+0  00000+0 0  9998
2 38014   0.0245 227.0040 0002843 129.7630 144.8996  1.00270075 52829
WGS F4 (USA 233)        
1 38070U 12003A   26154.58447184  .00000000  00000+0  00000+0 0  9991
2 38070   0.0181 337.8321 0000263 335.0008 238.0371  1.00271091 44011
SES-4                   
1 38087U 12007A   26154.34873468 -.00000156  00000+0  00000+0 0  9998
2 38087   0.0287  31.7719 0002399  46.7058 276.8753  1.00270063 52088
BEIDOU-2 G5             
1 38091U 12008A   26154.64985922  .00000068  00000+0  00000+0 0  9997
2 38091   3.5405  69.7817 0009673 276.2696 198.7274  1.00269089 52236
MUOS-1                  
1 38093U 12009A   26154.62951272 -.00000118  00000+0  00000+0 0  9996
2 38093   5.4494  47.1663 0058940   0.7427 330.8540  1.00270967 52309
INTELSAT 22 (IS-22)     
1 38098U 12011A   26154.58126516 -.00000047  00000+0  00000+0 0  9995
2 38098   0.0091  33.5279 0002036  39.3343 100.5222  1.00271898  7055
APSTAR-7                
1 38107U 12013A   26154.58213184 -.00000090  00000+0  00000+0 0  9994
2 38107   0.0187  13.3548 0002997  68.0945  96.6605  1.00271632 51673
YAHSAT 1B               
1 38245U 12016A   26154.57641182  .00000138  00000+0  00000+0 0  9994
2 38245   0.0928  91.5646 0002740 357.2745  58.3039  1.00273451 45471
AEHF-2 (USA 235)        
1 38254U 12019A   26154.42112378 -.00000126  00000+0  00000+0 0  9999
2 38254   6.6199  57.5897 0002305   4.5523 324.8483  1.00270752  6849
JCSAT-13                
1 38331U 12023A   26154.59147983 -.00000344  00000+0  00000+0 0  9990
2 38331   0.0296  64.8640 0003004  25.4287 138.6943  1.00270765 51402
VINASAT-2               
1 38332U 12023B   26154.59303984 -.00000317  00000+0  00000+0 0  9996
2 38332   0.0137 345.9647 0002651 101.0115 150.4242  1.00270947 46528
NIMIQ 6                 
1 38342U 12026A   26154.40630372 -.00000161  00000+0  00000+0 0  9991
2 38342   0.0110 312.9419 0002938 120.6599 233.4266  1.00270930 50279
ZHONGXING-2A            
1 38352U 12028A   26154.65772678 -.00000281  00000+0  00000+0 0  9990
2 38352   1.4198  84.0600 0003720  33.3143 109.7552  1.00269867 51164
INTELSAT 19 (IS-19)     
1 38356U 12030A   26154.53384103 -.00000044  00000+0  00000+0 0  9993
2 38356   0.0139 330.2476 0003254 110.1483 169.7862  1.00272142 50314
ECHOSTAR 17             
1 38551U 12035A   26154.51806946  .00000000  00000+0  00000+0 0  9998
2 38551   0.0192 347.2004 0001953  86.2939 257.8916  1.00269846 50921
METEOSAT-10 (MSG-3)     
1 38552U 12035B   26153.99660230  .00000005  00000+0  00000+0 0  9999
2 38552   4.6383  61.0835 0001907 337.3022 211.9971  1.00275412 50714
SES-5                   
1 38652U 12036A   26154.56783177  .00000046  00000+0  00000+0 0  9996
2 38652   0.0507 309.7732 0002315 124.4752  27.1852  1.00272267 44320
INTELSAT 20 (IS-20)     
1 38740U 12043A   26154.43793720 -.00000012  00000+0  00000+0 0  9997
2 38740   0.0019 191.5614 0001313 348.0413 298.4459  1.00268909 50610
HYLAS 2                 
1 38741U 12043B   26154.48124914 -.00000246  00000+0  00000+0 0  9995
2 38741   2.3919  81.2333 0003077  13.9165 257.4714  1.00269783 50631
INTELSAT 21 (IS-21)     
1 38749U 12045A   26154.48419583 -.00000273  00000+0  00000+0 0  9994
2 38749   0.0356  76.1266 0002173   7.5167 284.6103  1.00270593 50381
ASTRA 2F                
1 38778U 12051A   26154.64984363  .00000162  00000+0  00000+0 0  9990
2 38778   0.0552 258.5403 0000728 262.0474 353.6412  1.00271587 41006
GSAT-10                 
1 38779U 12051B   26154.51210262 -.00000153  00000+0  00000+0 0  9998
2 38779   0.0253 262.2310 0008072 185.2176  71.9039  1.00272493 49964
INTELSAT 23 (IS-23)     
1 38867U 12057A   26154.48514917 -.00000273  00000+0  00000+0 0  9995
2 38867   0.0154 300.6294 0000252 179.0567 253.9207  1.00268824 49813
BEIDOU-2 G6             
1 38953U 12059A   26154.65486677 -.00000163  00000+0  00000+0 0  9991
2 38953   4.3878  73.6678 0010412 325.9218 172.2153  1.00268889 49775
LUCH-5B                 
1 38977U 12061A   26154.51175475 -.00000130  00000+0  00000+0 0  9990
2 38977  10.4524  50.0165 0001538 140.4905 229.3664  1.00274489 49470
YAMAL 300K              
1 38978U 12061B   26154.49028330  .00000084  00000+0  00000+0 0  9992
2 38978   0.0166 291.0372 0001065 286.2182  34.1360  1.00276352 49494
STAR ONE C3             
1 38991U 12062A   26154.55205837 -.00000237  00000+0  00000+0 0  9995
2 38991   0.0175 325.3780 0002686 121.1366 289.2548  1.00271639 49623
EUTELSAT 21B            
1 38992U 12062B   26154.28594505  .00000142  00000+0  00000+0 0  9993
2 38992   0.0676 342.3353 0003025  91.3430 302.6165  1.00274299 49689
ECHOSTAR 16             
1 39008U 12065A   26154.48350249  .00000000  00000+0  00000+0 0  9995
2 39008   0.0163 359.3780 0002013  80.8540 284.2812  1.00270096 49508
ZHONGXING-12            
1 39017U 12067A   26154.65556010 -.00000195  00000+0  00000+0 0  9996
2 39017   0.0481 100.7074 0003381 328.9286 145.9880  1.00272391 49370
EUTELSAT 70B            
1 39020U 12069A   26154.58091850 -.00000031  00000+0  00000+0 0  9999
2 39020   0.0625 344.9783 0003943  80.9317 105.7505  1.00271241 49378
YAMAL 402               
1 39022U 12070A   26154.64916589  .00000098  00000+0  00000+0 0  9997
2 39022   1.2304  84.3290 0004073 345.9384 110.4357  1.00272388 49267
SKYNET 5D               
1 39034U 12075A   26154.57745182  .00000111  00000+0  00000+0 0  9992
2 39034   0.0663 351.8009 0003977  88.3433  72.5488  1.00271532 49027
MEXSAT 3                
1 39035U 12075B   26154.62597933 -.00000014  00000+0  00000+0 0  9991
2 39035   0.0151   9.3957 0001114  56.7973 296.4389  1.00276386  6916
TDRS 11                 
1 39070U 13004A   26154.57187987  .00000091  00000+0  00000+0 0  9995
2 39070   3.5014  31.0369 0004990  20.1509 232.4697  1.00277974 46555
AMAZONAS 3              
1 39078U 13006A   26154.48358916 -.00000270  00000+0  00000+0 0  9997
2 39078   0.0321 201.0207 0002194 258.1414 265.8890  1.00272417 44772
AZERSPACE 1             
1 39079U 13006B   26154.57606514  .00000145  00000+0  00000+0 0  9998
2 39079   0.0217  51.1437 0001473  42.7494  51.5170  1.00270890 48677
SBIRS GEO-2 (USA 241)   
1 39120U 13011A   26154.48566917 -.00000276  00000+0  00000+0 0  9999
2 39120   4.4611  52.4998 0002179  10.2016 314.2803  1.00271737 48392
EUTELSAT 117 WEST A     
1 39122U 13012A   26154.62543501 -.00000001  00000+0  00000+0 0  9998
2 39122   0.0334  49.2897 0003011  25.7256 285.4206  1.00271832 48294
ANIK G1                 
1 39127U 13014A   26154.62783887 -.00000062  00000+0  00000+0 0  9995
2 39127   0.0362  77.4895 0001942 347.8122 305.4989  1.00272261 48111
ZHONGXING-11            
1 39157U 13020A   26154.66363267 -.00000278  00000+0  00000+0 0  9994
2 39157   0.0197  10.5752 0002533  62.4138 155.9403  1.00270654 47767
EUTELSAT 7B             
1 39163U 13022A   26154.56835178  .00000060  00000+0  00000+0 0  9995
2 39163   0.0664   0.9938 0005343  33.9618  68.6891  1.00270449 47819
WGS F5 (USA 243)        
1 39168U 13024A   26154.34266797 -.00000272  00000+0  00000+0 0  9999
2 39168   0.0185 316.6171 0000365 122.3021 243.7445  1.00271315 47036
SES-6                   
1 39172U 13026A   26154.48766251 -.00000249  00000+0  00000+0 0  9995
2 39172   0.0169 351.2117 0002900  88.6998 307.1064  1.00271370 47585
IRNSS-1A                
1 39199U 13034A   26142.85947303  .00000059  00000+0  00000+0 0  9998
2 39199  35.6649  64.2334 0016618 185.3754 355.4646  1.00280263 47111
MUOS-2                  
1 39206U 13036A   26154.52975479 -.00000003  00000+0  00000+0 0  9991
2 39206   4.9690  45.5141 0050543 178.2284  30.9042  1.00270849 47054
ALPHASAT                
1 39215U 13038A   26154.57190513  .00000145  00000+0  00000+0 0  9992
2 39215   2.9974   1.3845 0002111  68.9368  52.4741  1.00269780 43888
INSAT-3D                
1 39216U 13038B   26154.59260650 -.00000328  00000+0  00000+0 0  9999
2 39216   1.8909  82.7115 0000940 345.9708 166.2209  1.00269783 46948
WGS F6 (USA 244)        
1 39222U 13041A   26154.50694981  .00000101  00000+0  00000+0 0  9997
2 39222   0.0177 342.5280 0000295  98.2083 218.5668  1.00271330 45928
ES'HAIL 1               
1 39233U 13044A   26154.57199179  .00000155  00000+0  00000+0 0  9997
2 39233   0.0479 349.4725 0002585  77.6948  56.2809  1.00269183 46490
GSAT-7                  
1 39234U 13044B   26154.58161183 -.00000065  00000+0  00000+0 0  9994
2 39234   0.0556 107.7725 0002929 187.0789 240.5784  1.00271141 45129
AMOS-4                  
1 39237U 13045A   26154.57979183  .00000019  00000+0  00000+0 0  9992
2 39237   0.0104  92.2806 0002640 316.9349 116.5487  1.00272502 46826
AEHF-3 (USA 246)        
1 39256U 13050A   26154.62747378  .00000040  00000+0  00000+0 0  9998
2 39256   5.2612  67.3042 0087866 188.0872  98.3384  1.00269208 45512
ASTRA 2E                
1 39285U 13056A   26154.64984355  .00000162  00000+0  00000+0 0  9991
2 39285   0.0591 335.1623 0002583  97.8867  81.4958  1.00272327 46289
FM-6                    
1 39360U 13058A   26154.62543494 -.00000002  00000+0  00000+0 0  9994
2 39360   0.0086  42.9907 0002482 104.4008 213.5233  1.00261102 45934
RADUGA-1M 3             
1 39375U 13062A   26153.95392064  .00000163  00000+0  00000+0 0  9992
2 39375   5.9222  72.5357 0001674 276.9151 280.3640  1.00273275 45961
SES-8                   
1 39460U 13071A   26154.65959852 -.00000257  00000+0  00000+0 0  9994
2 39460   0.0191 288.2775 0003023 153.5357 142.7581  1.00270284 44292
INMARSAT 5-F1           
1 39476U 13073A   26154.57935850  .00000039  00000+0  00000+0 0  9993
2 39476   0.0180 357.2998 0000392 354.1204 171.8330  1.00272223 45445
TKSAT-1 (TUPAC KATARI)  
1 39481U 13075A   26154.40708372 -.00000182  00000+0  00000+0 0  9990
2 39481   0.0378 183.1713 0002895 235.9700 252.0725  1.00270372 45463
EXPRESS-AM5             
1 39487U 13077A   26154.59468652 -.00000268  00000+0  00000+0 0  9997
2 39487   0.0139 283.9538 0000940  74.7905 247.4412  1.00272898 46224
GSAT-14                 
1 39498U 14001A   26154.51028262 -.00000065  00000+0  00000+0 0  9993
2 39498   0.0168 289.4470 0000457 177.4056  42.8394  1.00272088 45243
THAICOM 6               
1 39500U 14002A   26154.58247851 -.00000109  00000+0  00000+0 0  9991
2 39500   0.0733 111.1475 0004632 348.2612  80.8494  1.00270580 45323
TDRS 12                 
1 39504U 14004A   26154.48757584 -.00000259  00000+0  00000+0 0  9991
2 39504   3.9637  18.8614 0002401 199.1938 168.5373  1.00272500 44149
ABS-2                   
1 39508U 14006A   26154.58178516 -.00000074  00000+0  00000+0 0  9995
2 39508   0.0142  14.1420 0004400  46.8639 115.4088  1.00272059 45147
ATHENA-FIDUS            
1 39509U 14006B   26154.57441847  .00000166  00000+0  00000+0 0  9996
2 39509   0.0265  77.2099 0001554 354.2342  65.1839  1.00273135 44959
TURKSAT 4A              
1 39522U 14007A   26154.29001840  .00000158  00000+0  00000+0 0  9997
2 39522   0.0657 288.7453 0001349  59.4560  49.9708  1.00273363 44824
EXPRESS-AT1             
1 39612U 14010A   26154.65029256  .00000049  00000+0  00000+0 0  9991
2 39612   0.2233  85.9995 0003763  31.1838  69.8738  1.00301035 44687
EXPRESS-AT2             
1 39613U 14010B   26154.57805848  .00000091  00000+0  00000+0 0  9999
2 39613   0.0141 295.9391 0000356 123.0493  97.1449  1.00270782 44362
AMAZONAS 4A             
1 39616U 14011A   26154.61849260 -.00000240  00000+0  00000+0 0  9991
2 39616   0.0715 213.5878 0004149 252.3624 294.7743  1.00267513 44577
ASTRA 5B                
1 39617U 14011B   26154.57164513  .00000149  00000+0  00000+0 0  9995
2 39617   0.0644 310.6620 0002317 114.1458  56.5355  1.00272572 44538
IRNSS-1B                
1 39635U 14017A   26139.86086405  .00000103  00000+0  00000+0 0  9999
2 39635  28.9733 240.8911 0024226 185.2284 176.5740  1.00280229 44519
LUCH-5V                 
1 39727U 14023A   26154.68075256 -.00000258  00000+0  00000+0 0  9999
2 39727   5.1004  69.8854 0002759  25.1194 136.9453  1.00269555 44221
KAZSAT-3                
1 39728U 14023B   26154.50724927  .00000073  00000+0  00000+0 0  9991
2 39728   0.0388  64.7696 0000218  10.8383  57.4688  1.00271574 42328
EUTELSAT 3B             
1 39773U 14030A   26154.56757177  .00000032  00000+0  00000+0 0  9993
2 39773   0.0617 344.8125 0004213  90.0868  24.5489  1.00271980 43932
ASIASAT 8 (AMOS-7)      
1 40107U 14046A   26154.58783981 -.00000321  00000+0  00000+0 0  9999
2 40107   0.0235 284.3207 0001743 140.3439 144.3151  1.00274325102016
ASIASAT 6               
1 40141U 14052A   26154.59069983 -.00000350  00000+0  00000+0 0  9996
2 40141   0.0141 295.6156 0001056 147.8613 141.1412  1.00270958 42949
OPTUS 10                
1 40146U 14054A   26154.63095844 -.00000135  00000+0  00000+0 0  9994
2 40146   0.0378 281.4356 0002156 148.8030 204.9989  1.00272381 42890
MEASAT-3B               
1 40147U 14054B   26154.58490519 -.00000229  00000+0  00000+0 0  9991
2 40147   0.0359  29.7413 0002986  38.5959 125.7560  1.00268947 42778
HIMAWARI-8              
1 40267U 14060A   26154.59477318 -.00000263  00000+0  00000+0 0  9992
2 40267   0.0161 357.1038 0000981  89.6096 160.1301  1.00272955 42629
IRNSS-1C                
1 40269U 14061A   26154.36953477 -.00000152  00000+0  00000+0 0  9992
2 40269   6.4834  89.1897 0022527   0.9243  17.7824  1.00271513 42551
INTELSAT 30 (IS-30)     
1 40271U 14062A   26154.61662666 -.00000139  00000+0  00000+0 0  9996
2 40271   0.0260  44.0144 0000939  11.1273 323.8674  1.00270446  6651
ARSAT 1                 
1 40272U 14062B   26154.41011707 -.00000248  00000+0  00000+0 0  9990
2 40272   0.0340  51.8622 0002072  16.2723 259.5895  1.00272248 42487
EUTELSAT 53A            
1 40277U 14064A   26154.64873256  .00000110  00000+0  00000+0 0  9994
2 40277   0.0145 282.3733 0000682 239.6178  16.6591  1.00271816 41438
GSAT-16                 
1 40332U 14078A   26154.57788515  .00000097  00000+0  00000+0 0  9990
2 40332   0.0586  95.6012 0007937 347.7952  71.7573  1.00270889 41975
DIRECTV 14              
1 40333U 14078B   26154.40474370 -.00000114  00000+0  00000+0 0  9995
2 40333   0.0109 335.8789 0000342 170.4110 152.0523  1.00272592 41901
YAMAL 401               
1 40345U 14082A   26154.65608010  .00000000  00000+0  00000+0 0  9993
2 40345   0.0171 319.3001 0000021  98.7789 160.1705  1.00272676 41786
ASTRA 2G                
1 40364U 14089A   26154.50126925  .00000162  00000+0  00000+0 0  9994
2 40364   0.0470   0.5495 0005110  71.6237  28.4807  1.00274341 41833
FENGYUN 2G              
1 40367U 14090A   26153.96604253 -.00000292  00000+0  00000+0 0  9998
2 40367   5.6039  72.9861 0003383 154.7339 110.9679  1.00279700 41854
MUOS-3                  
1 40374U 15002A   26154.42129713 -.00000118  00000+0  00000+0 0  9992
2 40374   4.4953  43.4650 0051507 178.7918 165.8511  1.00272335 41449
INMARSAT 5-F2           
1 40384U 15005A   26154.41349708 -.00000273  00000+0  00000+0 0  9995
2 40384   0.0180 356.4609 0000718 189.5790 159.6776  1.00272553 40851
ABS-3A                  
1 40424U 15010A   26154.35246135  .00000000  00000+0  00000+0 0  9996
2 40424   0.0277  48.9232 0001637 343.4216 343.3435  1.00269410 41238
EUTELSAT 115 WEST B     
1 40425U 15010B   26154.40183520 -.00000013  00000+0  00000+0 0  9996
2 40425   0.0091 145.9460 0000364 117.7988  17.8725  1.00272081 41253
EXPRESS-AM7             
1 40505U 15012A   26154.57485181  .00000163  00000+0  00000+0 0  9998
2 40505   0.0177   5.2684 0003356  72.9122  60.7880  1.00271876 40876
BEIDOU-3S IGSO-1S       
1 40549U 15019A   26154.00947252 -.00000167  00000+0  00000+0 0  9998
2 40549  49.2221 295.6313 0038452 190.9865 220.8848  1.00254210 40936
THOR 7                  
1 40613U 15022A   26154.28161169  .00000000  00000+0  00000+0 0  9994
2 40613   0.0112 317.4913 0002871 113.4195 281.5602  1.00270794 40671
TURKMENALEM52E/MONACOSAT
1 40617U 15023A   26154.57727848  .00000116  00000+0  00000+0 0  9991
2 40617   0.0392  76.3725 0003190 353.9389  81.5561  1.00271674 40713
DIRECTV 15              
1 40663U 15026A   26154.62875189 -.00000090  00000+0  00000+0 0  9995
2 40663   0.0179 355.5557 0000172  47.8160 332.1751  1.00268498 40328
SKY MEXICO-1            
1 40664U 15026B   26154.55136503 -.00000222  00000+0  00000+0 0  9995
2 40664   0.0180 354.1951 0002386  96.0512 281.4535  1.00271268 40314
METEOSAT-11 (MSG-4)     
1 40732U 15034A   26154.28360503  .00000074  00000+0  00000+0 0  9993
2 40732   3.1675  71.1861 0001624   2.8008 289.1983  1.00275961  7070
STAR ONE C4             
1 40733U 15034B   26154.50580358 -.00000253  00000+0  00000+0 0  9991
2 40733   0.0218 340.6335 0002655  84.9817 298.4488  1.00271248 39874
WGS F7 (USA 263)        
1 40746U 15036A   26154.53027480  .00000029  00000+0  00000+0 0  9992
2 40746   0.0026 354.4897 0000119 271.1885 352.1931  1.00270647 39737
INTELSAT 34 (IS-34)     
1 40874U 15039A   26154.48462917 -.00000273  00000+0  00000+0 0  9991
2 40874   0.0094 331.5849 0000390  52.6362 346.7017  1.00270357 39495
EUTELSAT 8 WEST B       
1 40875U 15039B   26154.56540510 -.00000053  00000+0  00000+0 0  9993
2 40875   0.0647 345.1090 0003840  84.4595  18.0085  1.00272071 39526
GSAT-6                  
1 40880U 15041A   26154.58334517 -.00000149  00000+0  00000+0 0  9998
2 40880   1.8852  82.7559 0003348 346.0206 115.7883  1.00272200 39460
INMARSAT 5-F3           
1 40882U 15042A   26154.57693128  .00000062  00000+0  00000+0 0  9999
2 40882   0.0177 353.8854 0000467 104.0460 181.4283  1.00270072 39432
MUOS-4                  
1 40887U 15044A   26154.58195851 -.00000083  00000+0  00000+0 0  9991
2 40887   4.3044  42.1586 0059825   4.5194 129.8965  1.00272681 39427
TJS-1                   
1 40892U 15046A   26154.63095796 -.00000143  00000+0  00000+0 0  9999
2 40892   0.2883  85.0161 0005953 351.9341 197.3197  1.00273579 39435
EXPRESS-AM8             
1 40895U 15048A   26154.42155713 -.00000099  00000+0  00000+0 0  9997
2 40895   0.0152 283.2390 0000279 123.1381 343.2649  1.00271793 39205
BEIDOU-3S IGSO-2S       
1 40938U 15053A   26153.76900274 -.00000131  00000+0  00000+0 0  9994
2 40938  49.2447 258.9539 0064905 192.0503 172.9332  1.00263389 39215
SKY MUSTER 1 (NBN1A)    
1 40940U 15054A   26154.59468652  .00000000  00000+0  00000+0 0  9993
2 40940   0.0239 333.8529 0001920 113.3784 159.1387  1.00270594 39122
ARSAT 2                 
1 40941U 15054B   26154.55093170 -.00000213  00000+0  00000+0 0  9996
2 40941   0.0368  59.3289 0002310   2.7846 307.2470  1.00271979 39164
MORELOS 3               
1 40946U 15056A   26154.62643840 -.00000032  00000+0  00000+0 0  9995
2 40946   3.1758  14.7090 0001930   3.0735 346.7234  1.00271750 39140
APSTAR-9                
1 40982U 15059A   26154.59511985 -.00000253  00000+0  00000+0 0  9993
2 40982   0.0171 329.8450 0002029 207.0858  71.3864  1.00272364 38980
TURKSAT 4B              
1 40984U 15060A   26154.57684515  .00000126  00000+0  00000+0 0  9993
2 40984   0.0177 333.3115 0002465  98.2455  78.1511  1.00275200 38967
ZHONGXING-2C            
1 41021U 15063A   26154.58740648 -.00000312  00000+0  00000+0 0  9998
2 41021   0.2390  90.7301 0007396  95.7634  20.4676  1.00270948 38842
GSAT-15                 
1 41028U 15065A   26154.51418263 -.00000246  00000+0  00000+0 0  9991
2 41028   0.0455 118.8128 0004247 314.2324  97.5468  1.00270449 38665
BADR-7 (ARABSAT-6B)     
1 41029U 15065B   26154.50083590  .00000157  00000+0  00000+0 0  9992
2 41029   0.0461 245.2473 0003309 305.3162 267.7356  1.00275513 38631
LAOSAT 1                
1 41034U 15067A   26154.30726514 -.00000331  00000+0  00000+0 0  9993
2 41034   0.0550 120.9224 0002349 275.1968  94.8035  1.00270516 38721
TELSTAR 12V             
1 41036U 15068A   26154.42138380 -.00000107  00000+0  00000+0 0  9998
2 41036   0.0169 344.9423 0002604  84.0836 319.5674  1.00272042 38488
ELEKTRO-L 2             
1 41105U 15074A   26154.06484462 -.00000108  00000+0  00000+0 0  9998
2 41105   6.6592  70.6949 0001283 281.6013 268.0921  1.00272380 38362
COSMOS 2513             
1 41121U 15075A   26154.58282517 -.00000127  00000+0  00000+0 0  9992
2 41121   0.0788 103.1355 0003738 324.5065 114.4816  1.00272693 38419
EXPRESS-AMU1            
1 41191U 15082A   26154.57407181  .00000168  00000+0  00000+0 0  9996
2 41191   0.0122 294.1777 0003156 143.8808  56.7549  1.00272737 38137
GAOFEN-4                
1 41194U 15083A   26154.58792648 -.00000323  00000+0  00000+0 0  9990
2 41194   0.3229  83.8154 0004294 109.2365  16.3531  1.00270827 38390
BELINTERSAT-1           
1 41238U 16001A   26154.57719182  .00000119  00000+0  00000+0 0  9993
2 41238   0.0430 145.5955 0002212 244.4760 121.2521  1.00271501 38108
IRNSS-1E                
1 41241U 16003A   26153.66217735 -.00000304  00000+0  00000+0 0  9992
2 41241  33.2040  59.9607 0017875 180.0237   1.3117  1.00271881 37934
EUTELSAT 9B             
1 41310U 16005A   26154.56852512  .00000074  00000+0  00000+0 0  9992
2 41310   0.0491  65.6815 0002186 337.5229  62.4748  1.00271487 37982
SES-9                   
1 41380U 16013A   26154.58844649 -.00000333  00000+0  00000+0 0  9991
2 41380   0.0102 343.4809 0002495  96.2313 132.4827  1.00271712 37307
EUTELSAT 65 WEST A      
1 41382U 16014A   26154.48272249 -.00000264  00000+0  00000+0 0  9997
2 41382   0.0484 353.0995 0002537  79.1271 288.2819  1.00268651 37382
IRNSS-1F                
1 41384U 16015A   26154.57337847  .00000169  00000+0  00000+0 0  9999
2 41384   5.3151  97.0883 0016713 186.9795 206.8632  1.00276051 37532
BEIDOU-2 IGSO-6         
1 41434U 16021A   26154.65634010 -.00000145  00000+0  00000+0 0  9998
2 41434  60.2067  38.1749 0057320 231.5636 312.2967  1.00262467 37349
IRNSS-1G                
1 41469U 16027A   26154.30743847 -.00000323  00000+0  00000+0 0  9991
2 41469   5.1639  97.7935 0007420 351.5067  42.7287  1.00273260 37045
JCSAT-2B                
1 41471U 16028A   26154.52611478 -.00000153  00000+0  00000+0 0  9994
2 41471   0.0185 327.8275 0001161 120.4985 147.0665  1.00272838 36992
THAICOM 8               
1 41552U 16031A   26154.58247851 -.00000110  00000+0  00000+0 0  9997
2 41552   0.0575  36.1740 0004026  18.6680 125.4433  1.00271483 36588
INTELSAT 31 (IS-31)     
1 41581U 16035A   26154.61662699 -.00000139  00000+0  00000+0 0  9999
2 41581   0.0148 266.8945 0000774 342.3287 129.7894  1.00270289 36548
BEIDOU-2 G7             
1 41586U 16037A   26154.58887983 -.00000342  00000+0  00000+0 0  9993
2 41586   1.6869  69.2077 0007357   0.2777 145.1250  1.00272123  6756
ABS-2A (MONGOLSAT-1)    
1 41588U 16038A   26154.58178516  .00000000  00000+0  00000+0 0  9991
2 41588   0.0220 329.9689 0001581  55.7269 150.5309  1.00268829 36577
EUTELSAT 117 WEST B     
1 41589U 16038B   26154.51390030  .00000001  00000+0  00000+0 0  9993
2 41589   0.0069 141.8321 0000181 139.2530  38.9026  1.00268382 36521
BRISAT                  
1 41591U 16039A   26154.63329192 -.00000184  00000+0  00000+0 0  9994
2 41591   0.0175 309.8679 0002302 120.8803 199.8309  1.00271848 36476
ECHOSTAR 18             
1 41592U 16039B   26154.55483171 -.00000270  00000+0  00000+0 0  9990
2 41592   0.0177 346.2548 0001772  92.9467 311.1976  1.00273288 36484
MUOS-5                  
1 41622U 16041A   26154.62814065 -.00000118  00000+0  00000+0 0  9996
2 41622   2.2330 301.3934 0196429 260.8940 170.7097  1.00270619 36950
TIANTONG-1 1            
1 41725U 16048A   26154.65800097 -.00000307  00000+0  00000+0 0  9990
2 41725   3.8233  43.3015 0006265  39.0526 148.0603  1.00273911 36139
JCSAT-16                
1 41729U 16050A   26154.31021182 -.00000239  00000+0  00000+0 0  9994
2 41729   0.0177 336.2888 0001299 105.6098  65.4925  1.00271056 35931
USA 270                 
1 41744U 16052A   26153.40338689  .00000089  00000+0  00000+0 0  9997
2 41744   4.1610  77.3749 0008496 336.5224 166.3382  1.00282212 27986
USA 271                 
1 41745U 16052B   26152.80896376 -.00000348  00000+0  00000+0 0  9992
2 41745   4.1306  77.4501 0010805 158.0330  68.9246  1.00265484 27762
INTELSAT 36 (IS-36)     
1 41747U 16053A   26154.50924262 -.00000012  00000+0  00000+0 0  9998
2 41747   0.0118   1.5720 0001688 342.6860 159.5360  1.00270601 35826
INSAT-3DR               
1 41752U 16054A   26154.58161183 -.00000065  00000+0  00000+0 0  9996
2 41752   0.1391  86.9874 0010331 189.3352 259.1021  1.00271331 35686
GSAT-18                 
1 41793U 16060A   26154.58161183 -.00000065  00000+0  00000+0 0  9998
2 41793   0.0192  75.0996 0005961 353.5189 106.7997  1.00271762 35394
SKY MUSTER 2 (NBN1B)    
1 41794U 16060B   26154.59563985 -.00000232  00000+0  00000+0 0  9992
2 41794   0.0144 305.6324 0001813 127.5684 178.0911  1.00270693 35389
HIMAWARI-9              
1 41836U 16064A   26154.38097481 -.00000263  00000+0  00000+0 0  9997
2 41836   0.0404 176.3965 0001578 303.9244  49.4381  1.00271020 35072
SHIJIAN-17 (SJ-17)      
1 41838U 16065A   26154.51853347 -.00000029  00000+0  00000+0 0  9996
2 41838   5.7182  72.7681 0002131  18.0621 244.1681  0.99854092 35061
GOES 16                 
1 41866U 16071A   26154.62829279 -.00000079  00000+0  00000+0 0  9998
2 41866   0.3058  85.6641 0000714 317.2511 330.7028  1.00271270 34960
TIANLIAN 1-04           
1 41869U 16072A   26154.10268593  .00000044  00000+0  00000+0 0  9992
2 41869   0.8329  82.9790 0041519  90.4797 291.9185  1.00274743 35161
WGS F8 (USA 272)        
1 41879U 16075A   26154.63315628 -.00000190  00000+0  00000+0 0  9999
2 41879   0.0037 357.7274 0000322 333.1835 298.9431  1.00271863 34684
FENGYUN 4A              
1 41882U 16077A   26154.59147983 -.00000345  00000+0  00000+0 0  9999
2 41882   2.2888  80.4312 0008161 151.6017 356.6593  1.00276901 34794
ECHOSTAR 19             
1 41893U 16079A   26154.61732213 -.00000127  00000+0  00000+0 0  9990
2 41893   0.0181   5.9891 0001602  73.9814 297.2509  1.00272599 34567
JCSAT-110A (JCSAT-15)   
1 41903U 16082A   26154.51747597 -.00000339  00000+0  00000+0 0  9991
2 41903   0.0158 337.5052 0000855 110.8600  99.9724  1.00271622 34628
STAR ONE D1             
1 41904U 16082B   26154.55032502 -.00000199  00000+0  00000+0 0  9993
2 41904   0.0092  40.2290 0002121  47.7468 278.1533  1.00270447 34630
TJS-2                   
1 41911U 17001A   26154.58013850  .00000005  00000+0  00000+0 0  9996
2 41911   0.7982  85.5146 0000806   7.4319  74.4734  1.00272351 34581
SBIRS GEO-4 (USA 273)   
1 41937U 17004A   26154.57112513  .00000135  00000+0  00000+0 0  9996
2 41937   2.2170  42.9084 0002421  25.9068  49.7238  1.00272648 34464
HISPASAT 36W-1          
1 41942U 17006A   26154.41722377 -.00000232  00000+0  00000+0 0  9991
2 41942   0.0089 279.7635 0000988 153.0699 293.2548  1.00271300 34101
TELKOM 3S               
1 41944U 17007A   26154.59035316 -.00000351  00000+0  00000+0 0  9995
2 41944   0.0173 276.7121 0002541 157.7904 148.0891  1.00272004 34000
INTELSAT 32E (IS-32E)   
1 41945U 17007B   26154.48714251 -.00000257  00000+0  00000+0 0  9991
2 41945   0.0174 346.0882 0000240 349.4222  48.6242  1.00269465 34084
ECHOSTAR 23             
1 42070U 17014A   26154.62728502 -.00000045  00000+0  00000+0 0  9994
2 42070   0.0184  11.3625 0001948  59.7019 296.9459  1.00270964 33783
WGS F9 (USA 275)        
1 42075U 17016A   26154.35072802 -.00000084  00000+0  00000+0 0  9999
2 42075   0.0124 300.6942 0000457 132.6222 292.7645  1.00272243 33759
SES-10                  
1 42432U 17017A   26154.55370505 -.00000261  00000+0  00000+0 0  9997
2 42432   0.0235  33.9089 0002996  44.7145 305.8228  1.00271044 33610
CHINASAT 16 (SJ-13)     
1 42662U 17018A   26153.80461609 -.00000340  00000+0  00000+0 0  9994
2 42662   0.0989  93.6638 0003361 131.9444  65.8470  1.00269601 33609
KOREASAT 7              
1 42691U 17023A   26154.58991983 -.00000350  00000+0  00000+0 0  9992
2 42691   0.0261 325.5470 0000793  93.7105 161.0405  1.00268849 33239
SGDC                    
1 42692U 17023B   26154.50809175 -.00000238  00000+0  00000+0 0  9991
2 42692   0.0115  21.1326 0003148  61.6503 277.2578  1.00271054 33266
GSAT-9                  
1 42695U 17024A   26154.62504313 -.00000275  00000+0  00000+0 0  9995
2 42695   0.0219 279.1494 0002487 148.6631 146.5964  1.00274743 33162
INMARSAT 5-F4           
1 42698U 17025A   26154.57814515  .00000087  00000+0  00000+0 0  9991
2 42698   0.0176 342.9798 0000269  83.9496  89.7415  1.00271452 33140
SES-15                  
1 42709U 17026A   26154.62975404  .00000072  00000+0  00000+0 0  9990
2 42709   0.0205 330.1218 0000744  97.2038 282.3197  1.00269980  7298
QZS-2 (MICHIBIKI-2)     
1 42738U 17028A   26154.60922439 -.00000158  00000+0  00000+0 0  9998
2 42738  39.4485 243.3546 0759590 269.1264 100.0088  1.00287507  7498
VIASAT-2                
1 42740U 17029A   26154.55309837 -.00000253  00000+0  00000+0 0  9993
2 42740   0.0176 292.3917 0000470 144.7153 304.1384  1.00272056 33060
EUTELSAT 172B           
1 42741U 17029B   26154.52975479  .00000006  00000+0  00000+0 0  9997
2 42741   0.0172 150.1832 0000274 302.3979 162.1352  1.00270281 33609
GSAT-19                 
1 42747U 17031A   26154.57641182  .00000137  00000+0  00000+0 0  9997
2 42747   0.0990  91.8733 0007130 346.4465  69.1033  1.00269619 33011
ECHOSTAR 21             
1 42749U 17032A   26154.35506137  .00000078  00000+0  00000+0 0  9990
2 42749   1.7724 354.8001 0002622  85.6147 309.5191  1.00274919 32964
BULGARIASAT-1           
1 42801U 17038A   26154.28213169  .00000023  00000+0  00000+0 0  9997
2 42801   0.0612  90.5939 0003489 348.7524 275.8664  1.00269403 32703
HELLAS-SAT 3            
1 42814U 17040A   26154.57467847  .00000164  00000+0  00000+0 0  9996
2 42814   0.0473  44.3420 0004978   4.2346  89.3329  1.00271720 32671
GSAT-17                 
1 42815U 17040B   26154.51418263 -.00000246  00000+0  00000+0 0  9991
2 42815   0.0929  89.3239 0001688 218.9938 222.2748  1.00271867 32654
INTELSAT 35E (IS-35E)   
1 42818U 17041A   26154.42338179 -.00000226  00000+0  00000+0 0  9990
2 42818   0.0183   3.8827 0002340  67.9637 297.9545  1.00269917 32676
COSMOS 2520             
1 42907U 17046A   26154.57589181  .00000149  00000+0  00000+0 0  9994
2 42907   0.0452  87.1031 0001350  34.0493  23.2605  1.00270727 32264
TDRS 13                 
1 42915U 17047A   26154.42207713 -.00000089  00000+0  00000+0 0  9990
2 42915   3.4482   2.3870 0014677 103.7640 286.2351  1.00272606 32219
QZS-3 (MICHIBIKI-3)     
1 42917U 17048A   26154.61326869 -.00000336  00000+0  00000+0 0  9993
2 42917   0.0617 197.4048 0002887 244.6481 157.8313  1.00272732 32126
AMAZONAS 5              
1 42934U 17053A   26154.55483171 -.00000270  00000+0  00000+0 0  9998
2 42934   0.0314 323.5701 0002959  64.3728   2.8202  1.00272748 31906
ASIASAT 9               
1 42942U 17057A   26154.59113316 -.00000348  00000+0  00000+0 0  9992
2 42942   0.0034 351.8335 0002299  76.3407 158.7864  1.00272160 31728
INTELSAT 37E (IS-37E)   
1 42950U 17059A   26154.42077712 -.00000128  00000+0  00000+0 0  9990
2 42950   0.0241  61.8822 0002695  21.8703 301.6219  1.00273080 31927
BSAT-4A                 
1 42951U 17059B   26154.51738931 -.00000338  00000+0  00000+0 0  9991
2 42951   0.0422  21.1414 0004553  43.6527 123.2836  1.00271794 31660
QZS-4 (MICHIBIKI-4)     
1 42965U 17062A   26152.83447365 -.00000335  00000+0  00000+0 0  9998
2 42965  40.1173 343.6781 0744807 271.5041  73.7229  1.00256375 31649
SES-11 (ECHOSTAR 105)   
1 42967U 17063A   26154.62821738 -.00000077  00000+0  00000+0 0  9993
2 42967   0.0199 319.7600 0002905 122.6054 290.9381  1.00271485 31588
KOREASAT 5A             
1 42984U 17067A   26154.58939983 -.00000346  00000+0  00000+0 0  9992
2 42984   0.0237 294.1981 0001086 133.7822 149.4089  1.00271053 31396
ALCOMSAT 1              
1 43039U 17078A   26154.34812801 -.00000174  00000+0  00000+0 0  9998
2 43039   0.0162  32.7100 0002743  29.9488 289.6644  1.00270103 31152
SBIRS GEO-3 (USA 282)   
1 43162U 18009A   26154.61378576  .00000139  00000+0  00000+0 0  9996
2 43162   2.1745  11.4458 0002358  57.9018 244.2922  1.00272688 30707
AL YAH 3                
1 43174U 18012A   26154.42034378 -.00000144  00000+0  00000+0 0  9998
2 43174   1.5163  83.2745 0004458 350.4021 309.4328  1.00271347 30706
SES-14                  
1 43175U 18012B   26154.48627584 -.00000266  00000+0  00000+0 0  9997
2 43175   0.0237  30.8760 0001327  50.7687 297.8630  1.00272631  6883
GOES 17                 
1 43226U 18022A   26154.54919836 -.00000171  00000+0  00000+0 0  9991
2 43226   0.9032  85.9655 0000778   2.7614 271.5044  1.00271894 30281
HISPASAT 30W-6          
1 43228U 18023A   26154.41843711 -.00000204  00000+0  00000+0 0  9995
2 43228   0.0463  41.3588 0006584  23.1806 307.9833  1.00272563 30266
SUPERBIRD-B3            
1 43271U 18033A   26154.52776146 -.00000080  00000+0  00000+0 0  9995
2 43271   0.0168 353.0344 0001425  81.5267 169.4303  1.00272422 29925
HYLAS 4                 
1 43272U 18033B   26154.48904919 -.00000221  00000+0  00000+0 0  9999
2 43272   0.0275  65.3824 0001690  14.4037 314.7694  1.00270973 29922
IRNSS-1I                
1 43286U 18035A   26154.00038013  .00000081  00000+0  00000+0 0  9990
2 43286  28.7215  74.4239 0018642 240.1008 352.2211  1.00268728 29938
USA 283                 
1 43339U 18036A   26152.52599030  .00000000  00000+0  00000+0 0  9997
2 43339   0.0188 334.0976 0000530 108.9074 130.4589  1.00269360 25138
COSMOS 2526             
1 43432U 18037A   26154.30709181 -.00000332  00000+0  00000+0 0  9999
2 43432   0.0100   9.3046 0000889 240.6521 240.4240  1.00271823 29827
APSTAR-6C               
1 43450U 18041A   26154.52221477 -.00000306  00000+0  00000+0 0  9996
2 43450   0.0315  12.9247 0001311 357.1692 203.8798  1.00269755 29677
BANGABANDHUSAT-1        
1 43463U 18044A   26154.59052649 -.00000350  00000+0  00000+0 0  9992
2 43463   0.0239  68.0254 0002054   3.3959 152.3149  1.00270160 29576
SES-12                  
1 43488U 18049A   26154.62252490 -.00000258  00000+0  00000+0 0  9991
2 43488   0.0328  50.0182 0000817 265.8749 255.3009  1.00272169 29288
FENGYUN 2H              
1 43491U 18050A   26154.58273851 -.00000120  00000+0  00000+0 0  9994
2 43491   2.9968  79.2299 0001423 127.7023 334.3512  1.00272094 29307
BEIDOU-2 IGSO-7         
1 43539U 18057A   26154.44637847 -.00000008  00000+0  00000+0 0  9993
2 43539  55.1928 163.1774 0104421 237.9073 122.4801  1.00255724 28990
TELSTAR 19V             
1 43562U 18059A   26154.55448505 -.00000268  00000+0  00000+0 0  9992
2 43562   0.0199 151.6419 0002862 316.6837 280.2974  1.00270600 29009
TELKOM 4 (MERAH PUTIH)  
1 43587U 18064A   26154.51704264 -.00000332  00000+0  00000+0 0  9990
2 43587   0.0146 280.3468 0001645 177.5128  88.2471  1.00271521 28748
TELSTAR 18V             
1 43611U 18069A   26154.59425317 -.00000281  00000+0  00000+0 0  9993
2 43611   0.0186 289.1903 0002162 138.9166 175.8896  1.00273655 28507
AZERSPACE 2 (IS-38)     
1 43632U 18074A   26154.57589181  .00000148  00000+0  00000+0 0  9991
2 43632   0.0178 326.0512 0001585 110.8779  67.5306  1.00271839 28319
HORIZONS-3E             
1 43633U 18074B   26154.60040654 -.00000018  00000+0  00000+0 0  9990
2 43633   0.0182 146.2716 0000679 131.5921 359.3385  1.00271521 28200
AEHF-4 (USA 288)        
1 43651U 18079A   26154.55361838 -.00000263  00000+0  00000+0 0  9991
2 43651   1.4302   2.7540 0061649 357.1513  23.7033  1.00265764 28166
BEIDOU-3 G1             
1 43683U 18085A   26154.59858653 -.00000097  00000+0  00000+0 0  9998
2 43683   2.8342  97.7518 0008561 345.3562 184.4218  1.00272126 27929
GSAT-29                 
1 43698U 18089A   26154.57788515  .00000097  00000+0  00000+0 0  9994
2 43698   0.0375 109.5264 0003807 320.5763  85.0153  1.00270427 27653
ES'HAIL 2               
1 43700U 18090A   26154.57207846  .00000156  00000+0  00000+0 0  9999
2 43700   0.0180   3.8017 0001987 103.4409  16.5239  1.00272187 27542
GEO-KOMPSAT-2A          
1 43823U 18100A   26154.62265001 -.00000332  00000+0  00000+0 0  9997
2 43823   0.0519 141.1974 0002334 302.8468 160.4568  1.00270123 27495
GSAT-11                 
1 43824U 18100B   26154.58161183 -.00000065  00000+0  00000+0 0  9992
2 43824   0.0608 258.5718 0008054 185.6255  91.2327  1.00271946 27342
GSAT-7A                 
1 43864U 18105A   26154.57935850  .00000038  00000+0  00000+0 0  9999
2 43864   0.0280 259.3756 0002703 151.7918 112.2675  1.00273742 27311
COSMOS 2533             
1 43867U 18107A   26154.50950262 -.00000026  00000+0  00000+0 0  9999
2 43867   0.0538 110.1970 0001043 335.7930  59.3927  1.00269918 27317
TJS-3                   
1 43874U 18110A   26154.66762008 -.00000204  00000+0  00000+0 0  9995
2 43874   2.5099  80.6531 0001866  66.8699 133.1554  1.00274849 27287
ZHONGXING-2D            
1 43920U 19001A   26154.59269317 -.00000325  00000+0  00000+0 0  9998
2 43920   0.0406  75.6155 0000952 294.1711 225.6636  1.00271795 53943
HELLAS-SAT 4 & SGS-1    
1 44034U 19007A   26154.57467847  .00000165  00000+0  00000+0 0  9998
2 44034   0.0679 129.8803 0004740   6.6226   1.4432  1.00271364 27239
GSAT-31                 
1 44035U 19007B   26154.57641182  .00000137  00000+0  00000+0 0  9994
2 44035   0.0735  95.8410 0001001 274.4360 137.1405  1.00272199 26839
NUSANTARA SATU          
1 44048U 19009A   26154.52778528 -.00000222  00000+0  00000+0 0  9996
2 44048   0.0465 145.6603 0004453 327.4888 114.8618  1.00270094 26637
ZHONGXING-6C            
1 44067U 19012A   26154.30761181 -.00000323  00000+0  00000+0 0  9996
2 44067   0.1289  81.2909 0013481 326.5822  85.0709  1.00271633 26603
WGS 10 (USA 291)        
1 44071U 19014A   26152.51129727  .00000059  00000+0  00000+0 0  9993
2 44071   0.0180  11.7393 0000508  28.2181  94.4140  1.00272494 26465
TIANLIAN 2-01           
1 44076U 19017A   26154.58221851 -.00000095  00000+0  00000+0 0  9992
2 44076   0.5047  83.1242 0001033 353.2589 102.2814  1.00271789 26518
ARABSAT-6A              
1 44186U 19021A   26154.57294513  .00000166  00000+0  00000+0 0  9991
2 44186   0.0507   5.2592 0001043  36.5232  86.9999  1.00272245 26022
BEIDOU-3 IGSO-1         
1 44204U 19023A   26141.61780730 -.00000234  00000+0  00000+0 0  9993
2 44204  58.6591  37.9235 0025546 227.4594 312.4431  1.00299087  6947
BEIDOU-2 G8             
1 44231U 19027A   26154.59555318 -.00000235  00000+0  00000+0 0  9991
2 44231   1.6242  74.4906 0010777 284.3112 252.1109  1.00276251 25948
YAMAL 601               
1 44307U 19031A   26154.64795255  .00000132  00000+0  00000+0 0  9997
2 44307   0.0197  51.6155 0002637  25.3081  97.4441  1.00272614 25792
AT&T T-16               
1 44333U 19034A   26154.42825600 -.00000103  00000+0  00000+0 0  9992
2 44333   0.0274  67.0127 0000338 175.5814  62.6055  1.00271682 25491
EUTELSAT 7C             
1 44334U 19034B   26154.56835178  .00000060  00000+0  00000+0 0  9990
2 44334   0.0749 175.1444 0003340 243.2271  45.2633  1.00271253  6692
BEIDOU-3 IGSO-2         
1 44337U 19035A   26154.61080799 -.00000071  00000+0  00000+0 0  9994
2 44337  55.2443 158.9810 0039672 216.0015 216.9100  1.00271103 25539
COSMOS 2539             
1 44457U 19048A   26153.73980449  .00000094  00000+0  00000+0 0  9998
2 44457   0.0385  92.0927 0000645   1.2529  76.1965  1.00274138 25080
EDRS-C                  
1 44475U 19049A   26154.59520652 -.00000250  00000+0  00000+0 0  9995
2 44475   0.0074 331.2462 0001292 127.0591 150.5294  1.00271581 25072
INTELSAT 39 (IS-39)     
1 44476U 19049B   26154.61465374  .00000045  00000+0  00000+0 0  9999
2 44476   0.0176 323.5759 0000611   7.7753 203.9524  1.00271270 24991
AMOS-17                 
1 44479U 19050A   26154.57034512  .00000121  00000+0  00000+0 0  9990
2 44479   0.0257 307.2309 0001815 152.6830  14.4321  1.00272859 25059
AEHF-5 (USA 292)        
1 44481U 19051A   26154.51400929 -.00000246  00000+0  00000+0 0  9996
2 44481   1.4662 335.1317 0067204   1.4084 193.5530  1.00269911 25126
EUTELSAT 5 WEST B       
1 44624U 19067A   26154.56583844 -.00000030  00000+0  00000+0 0  9996
2 44624   0.0662 336.4849 0003387  96.6167  17.6310  1.00272044 24306
TJS-4                   
1 44637U 19070A   26154.65478010 -.00000158  00000+0  00000+0 0  9993
2 44637   0.0247 275.4446 0005202 123.2786 172.6494  1.00271578 24403
BEIDOU-3 IGSO-3         
1 44709U 19073A   26136.81046384 -.00000217  00000+0  00000+0 0  9995
2 44709  54.8566 281.2355 0042953 189.4588 170.3676  1.00246251 24144
TIBA-1                  
1 44800U 19080A   26154.57398514  .00000168  00000+0  00000+0 0  9997
2 44800   0.0546  10.9733 0002264  73.1749  50.0027  1.00272643 23926
INMARSAT GX5            
1 44801U 19080B   26154.56913178  .00000088  00000+0  00000+0 0  9997
2 44801   0.0357 351.6874 0002269  78.2389  38.0419  1.00275476  6658
JCSAT-18 (KACIFIC 1)    
1 44868U 19091A   26154.63315690  .00000000  00000+0  00000+0 0  9999
2 44868   0.0103 310.5880 0000291 198.4029 121.0422  1.00269457 23872
ELEKTRO-L 3             
1 44903U 19095A   26154.51071595 -.00000084  00000+0  00000+0 0  9996
2 44903   0.2227  81.2102 0001482 345.4784  85.0735  1.00271911 23576
SHIJIAN-20 (SJ-20)      
1 44910U 19097A   26154.50447593  .00000146  00000+0  00000+0 0  9998
2 44910   4.8841  75.2299 0013725  51.3146 351.7708  1.00273199 23566
TJS-5                   
1 44978U 20002A   26154.51695597 -.00000330  00000+0  00000+0 0  9996
2 44978   0.0443 281.0344 0007650 125.4340 139.1142  1.00272871 23570
GSAT-30                 
1 45026U 20005A   26154.58343184 -.00000153  00000+0  00000+0 0  9996
2 45026   0.0470 112.0329 0003627 328.8046 104.2543  1.00270929 23371
EUTELSAT KONNECT        
1 45027U 20005B   26154.56835178  .00000062  00000+0  00000+0 0  9992
2 45027   0.0710  99.7234 0000851 126.0593 238.0859  1.00270911 24206
JCSAT-17                
1 45245U 20013A   26154.52256144 -.00000306  00000+0  00000+0 0  9991
2 45245   5.3925 356.7360 0003073  72.1302 147.2496  1.00272819 23091
GEO-KOMPSAT-2B          
1 45246U 20013B   26153.69141970  .00000000  00000+0  00000+0 0  9999
2 45246   0.0113 356.8196 0000340 326.3262 305.1962  1.00268227 23130
BEIDOU-3 G2             
1 45344U 20017A   26154.65417343 -.00000129  00000+0  00000+0 0  9992
2 45344   2.8374  47.1437 0002886  24.0405 136.4515  1.00271091 23125
AEHF-6 (USA 298)        
1 45465U 20022B   26154.59407984 -.00000287  00000+0  00000+0 0  9990
2 45465   2.5795 300.9842 0043894  18.1899 284.3974  1.00266120 22878
BEIDOU-3 G3             
1 45807U 20040A   26154.58887983 -.00000343  00000+0  00000+0 0  9993
2 45807   2.4144  67.4218 0003099 335.2384 171.9377  1.00275053 21931
APSTAR-6D               
1 45863U 20045A   26153.38150127 -.00000305  00000+0  00000+0 0  9998
2 45863   0.0485 120.3802 0002474 332.1740  69.6890  1.00271913 21711
KOREASAT 116            
1 45920U 20048A   26154.59000649 -.00000350  00000+0  00000+0 0  9992
2 45920   0.0212 292.2720 0001304 174.3945 113.9869  1.00269786 21506
EXPRESS 103             
1 45985U 20053A   26154.65738010 -.00000269  00000+0  00000+0 0  9995
2 45985   0.0136 284.0576 0000365 112.9915 188.2309  1.00272540 21518
EXPRESS 80              
1 45986U 20053B   26154.07908093 -.00000124  00000+0  00000+0 0  9992
2 45986   0.0184 301.3296 0001782 205.9433 212.7430  1.00271095 21495
BSAT-4B                 
1 46112U 20056A   26154.51738931  .00000000  00000+0  00000+0 0  9990
2 46112   0.0160 126.3765 0004138 344.4516  77.2431  1.00269300 21251
MEV-2                   
1 46113U 20056B   26154.56679177  .00000001  00000+0  00000+0 0  9993
2 46113   0.0106 356.7814 0000197  52.5764  45.7078  1.00270348 80334
GALAXY 30 (G-30)        
1 46114U 20056C   26154.62838500  .00000049  00000+0  00000+0 0  9990
2 46114   0.0138  21.0210 0002477  49.4728 282.7947  1.00272002 21152
GAOFEN-13 01            
1 46610U 20071A   26154.44767848 -.00000351  00000+0  00000+0 0  9991
2 46610   0.4857  84.9819 0041732 122.6736 323.5708  1.00266765 20784
TIANTONG-1 2            
1 46916U 20082A   26154.59173984 -.00000344  00000+0  00000+0 0  9992
2 46916   0.8083 325.5648 0001646 101.8984 162.5725  1.00271093 20517
LUCAS (JDRS-1)          
1 47202U 20089A   26154.58490519 -.00000223  00000+0  00000+0 0  9999
2 47202   0.0403 272.5175 0002876 146.4898 134.3936  1.00270011 20289
SXM-7                   
1 47240U 20096A   26154.55006502 -.00000193  00000+0  00000+0 0  9997
2 47240   0.0281  93.9660 0004343  31.3713 239.5436  1.00271022  7302
CMS-01                  
1 47256U 20099A   26154.58334517 -.00000153  00000+0  00000+0 0  9996
2 47256   0.0664 104.8526 0003494 181.7976 258.3980  1.00271395 20068
TURKSAT 5A              
1 47306U 21001A   26154.57303179  .00000166  00000+0  00000+0 0  9998
2 47306   0.0187  50.8222 0000278  46.0577  32.3812  1.00273245 19837
TIANTONG-1 3            
1 47321U 21003A   26154.65443344 -.00000144  00000+0  00000+0 0  9992
2 47321   1.7671 338.4899 0003527  98.9346 131.8175  1.00273524 19821
TJS-6                   
1 47613U 21010A   26153.53287257  .00000055  00000+0  00000+0 0  9999
2 47613   0.5630  87.7253 0002631 337.8803 195.7324  1.00272435 19660
SBIRS GEO-5 (USA 315)   
1 48618U 21042A   26154.51418263 -.00000258  00000+0  00000+0 0  9998
2 48618   5.1212 329.0200 0001783 112.0976  89.7763  1.00271909 18638
FENGYUN 4B              
1 48808U 21047A   26153.68828171 -.00000317  00000+0  00000+0 0  9990
2 48808   0.1181  75.3985 0005240 291.0127 237.2172  1.00267737 18434
SXM-8                   
1 48838U 21049A   26154.55006502 -.00000193  00000+0  00000+0 0  9990
2 48838   0.0200  11.9958 0005019  23.7733 329.1308  1.00271269 18449
TIANLIAN 1-05           
1 49011U 21063A   26154.64153919  .00000120  00000+0  00000+0 0  9994
2 49011   1.5588  80.8166 0001197 316.5553 102.5041  1.00273089 17943
STAR ONE D2             
1 49055U 21069A   26154.55309837  .00000000  00000+0  00000+0 0  9997
2 49055   0.0116 343.0921 0001726 121.3044 276.6393  1.00268497 17805
EUTELSAT QUANTUM        
1 49056U 21069B   26154.57641182  .00000138  00000+0  00000+0 0  9994
2 49056   0.0145 318.3869 0002514 113.0559  75.8085  1.00272188 17796
ZHONGXING-2E            
1 49062U 21071A   26154.64659372 -.00000279  00000+0  00000+0 0  9999
2 49062   0.0401  92.7819 0002200  44.9955  85.1666  1.00270769 17905
TJS-7                   
1 49115U 21077A   26154.61870847 -.00000112  00000+0  00000+0 0  9999
2 49115   0.4744  86.2831 0002544 331.8972 317.1828  1.00271739  9411
CHINASAT 9B             
1 49125U 21080A   26154.65800072 -.00000300  00000+0  00000+0 0  9990
2 49125   0.0138  17.6012 0002089  72.4448 140.3363  1.00269219 17514
SHIJIAN-21 (SJ-21)      
1 49330U 21094A   26154.73038558 -.00000337  00000+0  00000+0 0  9994
2 49330   5.0812  61.2602 0049267 167.9634  53.8135  1.00278566  5227
SES-17                  
1 49332U 21095A   26154.55370505 -.00000260  00000+0  00000+0 0  9993
2 49332   0.0244  28.7574 0001219  46.9520 308.5466  1.00270654 17718
SYRACUSE 4A             
1 49333U 21095B   26154.57597847  .00000147  00000+0  00000+0 0  9999
2 49333   0.0176 331.3588 0001322 105.4549  68.0808  1.00273209 17816
QZS-1R (MICHIBIKI-1R)   
1 49336U 21096A   26154.54184661 -.00000253  00000+0  00000+0 0  9995
2 49336  37.4344  79.7856 0754046 271.5175 230.5292  1.00261002 16875
ZHONGXING-1D            
1 49505U 21114A   26154.59269317 -.00000324  00000+0  00000+0 0  9990
2 49505   0.0554  89.1734 0000999  78.5553  67.8695  1.00269911 16682
STPSAT-6                
1 49817U 21118A   26154.62682481 -.00000034  00000+0  00000+0 0  9993
2 49817   0.2857  85.5602 0001502 265.7547  14.7129  1.00273752 16438
EXPRESS AMU-7           
1 50001U 21123A   26153.71472487 -.00000230  00000+0  00000+0 0  9996
2 50001   0.0165 304.5721 0000622  41.0591 307.8527  1.00271575 16391
EXPRESS AMU-3           
1 50002U 21123B   26154.01532287 -.00000309  00000+0  00000+0 0  9993
2 50002   0.0160 318.5718 0000861 342.5789  58.8457  1.00270974  6892
TIANLIAN 2-02           
1 50005U 21124A   26154.48543443 -.00000002  00000+0  00000+0 0  9994
2 50005   0.7666  86.3506 0001270 226.9166 284.4050  1.00272855 16489
TURKSAT 5B              
1 50212U 21126A   26154.57528514  .00000158  00000+0  00000+0 0  9999
2 50212   0.0686 339.2989 0003800  19.9519 141.8870  1.00271606 16166
INMARSAT 6-F1           
1 50319U 21128A   26154.58351851 -.00000160  00000+0  00000+0 0  9992
2 50319   0.0145 303.3355 0000222 157.0513  85.4833  1.00269925 16125
SHIYAN-12 01 (SY-12 01) 
1 50321U 21129A   26154.74681170  .00000007  00000+0  00000+0 0  9993
2 50321   3.6398  80.0898 0003609 290.7507 221.5939  1.00038141 16368
SHIYAN-12 02 (SY-12 02) 
1 50322U 21129B   26154.74989406 -.00000158  00000+0  00000+0 0  9995
2 50322   3.6395  80.0970 0002710  48.7511 111.6108  1.00492737 16367
TJS-9                   
1 50574U 21135A   26154.68378178 -.00000286  00000+0  00000+0 0  9994
2 50574   0.0682 258.3164 0004968 147.7330 229.4458  1.00274216 16295
GOES 18                 
1 51850U 22021A   26154.63318422  .00000109  00000+0  00000+0 0  9991
2 51850   0.0408 139.8837 0000606 335.2948 227.8592  1.00271460  6459
ZHONGXING-6D            
1 52255U 22038A   26153.95415274 -.00000341  00000+0  00000+0 0  9995
2 52255   0.0211  93.3768 0000397 249.8230  16.8036  1.00272099 15288
NILESAT 301             
1 52817U 22061A   26154.56549177 -.00000046  00000+0  00000+0 0  9995
2 52817   0.0514  16.6745 0005768  25.7163  46.2049  1.00272135 14601
CMS-02 (GSAT-24)        
1 52903U 22067A   26154.58343184 -.00000153  00000+0  00000+0 0  9998
2 52903   0.0110  14.9649 0001937   1.0084 169.1147  1.00272144 14475
MEASAT 3D               
1 52904U 22067B   26154.58490519 -.00000230  00000+0  00000+0 0  9990
2 52904   0.0278 345.1221 0001450  50.1251 158.8737  1.00271925 14518
SES-22                  
1 52933U 22071A   26154.63386978  .00000116  00000+0  00000+0 0  9998
2 52933   0.0120 325.8843 0001426  97.8828 277.5098  1.00272500  7388
WFOV (USA 332)          
1 52940U 22073A   26154.59061316 -.00000351  00000+0  00000+0 0  9991
2 52940   3.6761  78.6999 0001881 248.9331 256.2870  1.00269968 14232
TIANLIAN 2-03           
1 53100U 22078A   26154.35514804  .00000084  00000+0  00000+0 0  9996
2 53100   0.6371  76.7389 0001609 312.8005   0.7191  1.00272587 14402
SBIRS GEO-6 (USA 336)   
1 53355U 22092A   26154.59451317 -.00000280  00000+0  00000+0 0  9998
2 53355   3.2812 317.2633 0002240 113.2742 174.5535  1.00271947 14097
EUTELSAT KONNECT VHTS   
1 53765U 22110A   26154.56739844  .00000029  00000+0  00000+0 0  9995
2 53765   0.0675 105.1912 0002956 313.1068  40.6903  1.00271176  6709
ZHONGXING-1E            
1 53813U 22112A   26154.65434677 -.00000138  00000+0  00000+0 0  9999
2 53813   0.0355  97.8654 0000484 271.9424 199.2879  1.00271683 13714
SES-20                  
1 53960U 22123A   26154.54651168 -.00000089  00000+0  00000+0 0  9993
2 53960   0.0392  77.7119 0002334 358.1144 269.8310  1.00271993 13396
SES-21                  
1 53961U 22123B   26154.63043910  .00000081  00000+0  00000+0 0  9995
2 53961   0.0259  29.4369 0001193  21.9932 296.6130  1.00274751  7073
GALAXY 33 (G-33)        
1 54026U 22128A   26154.63113078  .00000091  00000+0  00000+0 0  9997
2 54026   0.0119  20.9055 0002057  54.1798 271.2253  1.00272962 13600
GALAXY 34 (G-34)        
1 54027U 22128B   26154.62975466  .00000000  00000+0  00000+0 0  9994
2 54027   0.0240 342.9700 0002062  99.4747 267.3615  1.00274655 13779
ANGOSAT 2               
1 54033U 22131A   26154.57147179  .00000147  00000+0  00000+0 0  9993
2 54033   0.0320  77.4861 0001674  43.8281 359.4453  1.00272126 13344
EUTELSAT HOTBIRD 13F    
1 54048U 22134A   26154.56956512  .00000099  00000+0  00000+0 0  9996
2 54048   0.0499 290.2832 0001982  77.1505 102.6508  1.00271007 13246
LDPE-2                  
1 54219U 22144A   26154.57048902  .00000130  00000+0  00000+0 0  9999
2 54219   5.5803  63.7625 0001657  87.7974 135.7151  1.00527594 11709
EUTELSAT HOTBIRD 13G    
1 54225U 22146A   26154.35566804  .00000099  00000+0  00000+0 0  9994
2 54225   0.0481 235.6377 0002044 298.3154 218.9110  1.00270867  7323
ZHONGXING-19            
1 54230U 22148A   26154.59927986 -.00000070  00000+0  00000+0 0  9990
2 54230   0.0342 273.7596 0002408 183.2988 173.9362  1.00270502 13245
GALAXY 31 (G-31)        
1 54243U 22153A   26154.62701866  .00000025  00000+0  00000+0 0  9990
2 54243   0.0163  28.6540 0001522  45.3280 282.8301  1.00271883  6995
GALAXY 32 (G-32)        
1 54244U 22153B   26154.54893836 -.00000162  00000+0  00000+0 0  9994
2 54244   0.0104 349.2737 0002408  51.0180 318.3304  1.00270894 13007
EUTELSAT 10B            
1 54259U 22157A   26154.35506137  .00000080  00000+0  00000+0 0  9996
2 54259   0.0643 104.8945 0002142 344.8905 299.8422  1.00271675 12887
GALAXY 35 (G-35)        
1 54741U 22170A   26154.61593708  .00000000  00000+0  00000+0 0  9998
2 54741   0.0145   6.2136 0002329  71.5972 302.8998  1.00270783 12750
GALAXY 36 (G-36)        
1 54742U 22170B   26154.54928502 -.00000173  00000+0  00000+0 0  9997
2 54742   0.0182 244.0702 0002900 195.1247 281.5605  1.00272444 12637
METEOSAT-12 (MTG-I1)    
1 54743U 22170C   26154.28169836  .00000003  00000+0  00000+0 0  9997
2 54743   0.7233  20.6199 0003606  68.7129 263.4032  1.00271294 12835
SHIJIAN-23 (SJ-23)      
1 55131U 23002A   26154.66930644 -.00000165  00000+0  00000+0 0  9999
2 55131   3.6827  78.4813 0003973 278.4105 293.1700  1.00091075 12371
APSTAR-6E               
1 55239U 23005A   26154.52221477 -.00000306  00000+0  00000+0 0  9990
2 55239   0.0298 252.8968 0001230 266.6985  54.3896  1.00266923 18556
USA 342                 
1 55263U 23008A   26152.29024336  .00000151  00000+0  00000+0 0  9994
2 55263   0.0058 148.1469 0000413 130.9082  99.0189  1.00271715 12351
LDPE-3A                 
1 55264U 23008B   26154.48506250 -.00000194  00000+0  00000+0 0  9996
2 55264   2.3120  81.8312 0001223  38.3276 252.8937  0.99149087 11670
ELEKTRO-L 4             
1 55506U 23016A   26153.84139211 -.00000046  00000+0  00000+0 0  9998
2 55506   0.0758 188.7165 0000663 354.6661 176.6217  1.00272380 12191
AMAZONAS NEXUS          
1 55508U 23017A   26154.55483171 -.00000271  00000+0  00000+0 0  9997
2 55508   0.0390  34.3451 0005474  26.5008 329.9174  1.00270762  6903
ZHONGXING-26            
1 55686U 23023A   26154.59173984 -.00000342  00000+0  00000+0 0  9992
2 55686   0.0681  72.1066 0004175   8.8150 149.2885  1.00271104 12093
LUCH-5X (OLYMP-K 2)     
1 55841U 23031A   26154.72656752  .00000045  00000+0  00000+0 0  9997
2 55841   0.0239  54.9081 0000780 159.5695   1.2300  1.00270312 11803
GAOFEN-13 02            
1 55912U 23036A   26154.51845241 -.00000206  00000+0  00000+0 0  9991
2 55912   1.0187 359.3818 0004284 344.1483 243.3474  1.00274711 11959
SES-18                  
1 55970U 23038A   26154.62009692 -.00000089  00000+0  00000+0 0  9990
2 55970   0.0169 292.6540 0000517  77.4468   2.1208  1.00272063 11962
SES-19                  
1 55971U 23038B   26154.63181616  .00000100  00000+0  00000+0 0  9992
2 55971   0.0101 359.2610 0001813  70.8496 274.5356  1.00272636 11959
INTELSAT 40E (IS-40E)   
1 56174U 23052A   26154.54893836  .00000000  00000+0  00000+0 0  9997
2 56174   0.0132   3.3768 0002296 109.2672 245.9828  1.00272633 11682
VIASAT-3 F1             
1 56370U 23060A   26154.54937169  .00000000  00000+0  00000+0 0  9992
2 56370   0.0240 319.3923 0001038 109.7557 291.6545  1.00270712 11290
ARCTURUS                
1 56371U 23060B   26154.58135183 -.00000051  00000+0  00000+0 0  9990
2 56371   2.7416  80.1080 0002033  40.6068  53.0849  1.00271496 11329
GS-1                    
1 56372U 23060C   26153.72904434 -.00000212  00000+0  00000+0 0  9998
2 56372   2.6897  79.9972 0004018 279.1394 243.6560  1.00278618  7396
BEIDOU-3 G4             
1 56564U 23066A   26154.59468652 -.00000269  00000+0  00000+0 0  9992
2 56564   0.5029 328.0155 0004380 167.4765 110.6834  1.00269137 11250
ARABSAT-7B (BADR-8)     
1 56757U 23075A   26154.57207846  .00000157  00000+0  00000+0 0  9995
2 56757   0.0767  28.1646 0005013 355.1149 100.7089  1.00272453 10983
NVS-01 (IRNSS-1J)       
1 56759U 23076A   26154.59260650 -.00000323  00000+0  00000+0 0  9998
2 56759   2.1984 244.9634 0002879  44.4493 305.5759  1.00272540 10976
NUSANTARA TIGA (SATRIA) 
1 57045U 23086A   26154.52778637 -.00000223  00000+0  00000+0 0  9999
2 57045   0.0380 341.5724 0003608   4.4101 242.0061  1.00269390  9629
H2SAT (HEINRICH HERTZ)  
1 57213U 23093A   26154.56705177  .00000014  00000+0  00000+0 0  9994
2 57213   0.0448 125.5229 0000973 328.5170   2.8006  1.00272413 10789
SYRACUSE 4B             
1 57214U 23093B   26154.56557844  .00000000  00000+0  00000+0 0  9996
2 57214   0.0180 350.0528 0000296 133.9427 325.1943  1.00271768  6835
JUPITER 3 (ECHOSTAR 24) 
1 57479U 23108A   26153.56721942  .00000000  00000+0  00000+0 0  9997
2 57479   0.0191 330.0350 0001222 101.7115 288.2668  1.00270006 10504
GALAXY 37 (G-37)        
1 57493U 23112A   26154.62907237  .00000060  00000+0  00000+0 0  9995
2 57493   0.0142 309.2699 0002287 125.7853 276.5038  1.00272973 10402
LUDI TANCE-4 01A        
1 57624U 23120A   26153.73881874 -.00000162  00000+0  00000+0 0  9993
2 57624  15.1104 194.3254 0000762  72.9345 339.6342  1.00272712 10408
TJS-10                  
1 58204U 23169A   26154.72794654 -.00000238  00000+0  00000+0 0  9994
2 58204   2.5097  80.6492 0003775  96.3835  69.6584  1.00269817  9404
ZHONGXING-6E            
1 58253U 23172A   26154.58983316  .00000000  00000+0  00000+0 0  9997
2 58253   0.0169 331.5651 0002674 105.7175 142.6462  1.00269791  9526
YAOGAN-41               
1 58582U 23197A   26154.59139316 -.00000350  00000+0  00000+0 0  9992
2 58582   3.1538 312.9235 0014038 188.3736  86.7555  1.00266385  9182
OVZON-3                 
1 58698U 24003A   26154.50750927  .00000063  00000+0  00000+0 0  9995
2 58698   0.0063 289.6291 0000335 154.8592  49.8818  1.00271698  7312
INSAT-3DS               
1 58990U 24033A   26154.58317184 -.00000144  00000+0  00000+0 0  9996
2 58990   0.0163 245.1788 0001649 180.2953 118.5751  1.00271192 46939
MERAH PUTIH 2           
1 58995U 24035A   26154.58931316 -.00000346  00000+0  00000+0 0  9996
2 58995   0.0170 276.9676 0001599 143.2943 156.8959  1.00271734  8454
TJS-11                  
1 59020U 24037A   26147.82614384 -.00000366  00000+0  00000+0 0  9992
2 59020   4.2247 326.8251 0009231  68.5888 267.4904  1.00203688  8370
HULIANWAN GAOGUI-01 (H*)
1 59069U 24040A   26154.57363847  .00000168  00000+0  00000+0 0  9993
2 59069   0.0664 329.1566 0003319  73.7525  89.2517  1.00271452  7195
EUTELSAT 36D            
1 59346U 24059A   26154.57407181  .00000168  00000+0  00000+0 0  9991
2 59346   0.0159   4.4277 0000449 119.2220  10.9212  1.00272127  8018
PAKSAT-MM1              
1 59915U 24104A   26154.57450514  .00000166  00000+0  00000+0 0  9990
2 59915   0.0168  22.7691 0002160  45.5273  68.7327  1.00273320  7398
ASTRA 1P (SES-24)       
1 60086U 24115A   26154.57077846  .00000132  00000+0  00000+0 0  9999
2 60086   0.0646  17.3849 0000372   0.7444  98.5935  1.00276616  7062
GOES 19                 
1 60133U 24119A   26154.55205837 -.00000236  00000+0  00000+0 0  9993
2 60133   0.0471 137.9796 0000666 348.8528 248.7344  1.00271975  6825
ZHONGXING-3A            
1 60179U 24122A   26153.65526759 -.00000300  00000+0  00000+0 0  9998
2 60179   0.0473 109.1771 0001879 345.7961 133.5861  1.00266908  7168
TURKSAT 6A              
1 60233U 24127A   26154.57528514  .00000158  00000+0  00000+0 0  9997
2 60233   0.0479 170.9041 0001666 306.7626  23.4762  1.00270702  6882
HULIANWAN GAOGUI-02 (H*)
1 60327U 24135A   26153.74156412 -.00000161  00000+0  00000+0 0  9997
2 60327   0.0426 356.0531 0007806  12.4792 302.8319  1.00269974  7350
ZHONGXING-4A            
1 60606U 24151A   26154.59035316 -.00000350  00000+0  00000+0 0  9998
2 60606   1.3496 271.0006 0000602 180.3479 131.4576  1.00273240  6618
HULIANWAN GAOGUI-03 (H*)
1 61503U 24181A   26154.62281911 -.00000229  00000+0  00000+0 0  9991
2 61503   0.0445 359.0814 0001401  95.9780 304.1047  1.00269903  6683
DSN-3 (KIRAMEKI-3)      
1 61733U 24198A   26154.59546652 -.00000238  00000+0  00000+0 0  9996
2 61733   0.0150  11.6636 0000734 113.5165 125.3184  1.00272140  5788
KOREASAT 6A             
1 61910U 24206A   26154.58991983 -.00000350  00000+0  00000+0 0  9998
2 61910   0.0157  81.2931 0001090   6.3406 132.7930  1.00269847  5709
OPTUS-X (ADS-01)        
1 62006U 24212A   26154.58848111 -.00000131  00000+0  00000+0 0  9993
2 62006   0.0194 289.0352 0001821 183.2255 148.0436  1.00274150  5626
GSAT-N2 (GSAT-20)       
1 62028U 24214A   26154.58039850 -.00000009  00000+0  00000+0 0  9995
2 62028   0.0212 238.4873 0002200 198.7728  91.7600  1.00275003  5765
SXM-9                   
1 62259U 24234A   26154.55006502 -.00000193  00000+0  00000+0 0  9992
2 62259   0.0145 328.3339 0004603 348.5536  47.9961  1.00270930  5434
TJS-12                  
1 62374U 24246A   26154.52778641 -.00000218  00000+0  00000+0 0  9998
2 62374   0.7008 297.8587 0002429  89.8243 200.8412  1.00274301  5422
NUVIEW ALPHA            
1 62455U 24252B   26154.47916913 -.00000203  00000+0  00000+0 0  9999
2 62455   0.0568  32.1670 0001165  12.8632 296.3291  1.00272309  3680
AGILA                   
1 62456U 24252C   26154.59070935 -.00000170  00000+0  00000+0 0  9991
2 62456   0.0464 135.8200 0001140 314.7156 166.3242  1.00270553  5025
NUVIEW BRAVO            
1 62457U 24252D   26154.47916913 -.00000203  00000+0  00000+0 0  9991
2 62457   0.0753 137.8768 0001995 335.8773 227.5746  1.00270889  3653
THURAYA-4               
1 62483U 25001A   26154.57571847  .00000151  00000+0  00000+0 0  9998
2 62483   0.0260  60.6317 0000174  21.5181  61.4610  1.00272703  4044
SHIJIAN-25 (SJ-25)      
1 62485U 25002A   26154.73046222 -.00000339  00000+0  00000+0 0  9992
2 62485   5.0812  61.2456 0051546 172.8146  48.3391  1.00281646  5222
TJS-14                  
1 62804U 25017A   26154.64188586  .00000127  00000+0  00000+0 0  9997
2 62804   0.8138 294.6819 0000492 272.8210 294.0587  1.00269685  5139
SPAINSAT NG I           
1 62852U 25021A   26154.57268513  .00000163  00000+0  00000+0 0  9996
2 62852   0.0099 349.7056 0000218  92.8363  44.6641  1.00270909  3858
QZS-6 (MICHIBIKI-6)     
1 62876U 25023A   26154.58490519 -.00000220  00000+0  00000+0 0  9993
2 62876   0.0181  22.2438 0002598  54.1814 116.6489  1.00268850  4817
ZHONGXING-10R           
1 63075U 25036A   26154.60672255 -.00000340  00000+0  00000+0 0  9994
2 63075   0.0536 254.5892 0003292 243.8575  82.5794  1.00272832  4826
TJS-15                  
1 63157U 25045A   26154.73236772 -.00000253  00000+0  00000+0 0  9992
2 63157   0.2813  85.2729 0005568 299.9874 224.9861  1.00270021  4620
TIANLIAN 2-04           
1 63361U 25062A   26154.44013845 -.00000123  00000+0  00000+0 0  9996
2 63361   4.4102 274.6372 0031440  10.9341 204.8519  1.00270819  4464
TJS-16                  
1 63397U 25064A   26154.66338115 -.00000093  00000+0  00000+0 0  9997
2 63397   1.0632  81.5310 0003818 294.0276 275.9734  1.00272690  4255
TJS-17                  
1 63524U 25073A   26154.67086645 -.00000058  00000+0  00000+0 0  9999
2 63524   1.0290  82.8055 0002604 301.6214 273.7230  1.00272521  4155
TIANLIAN 2-05           
1 63662U 25084A   26154.64231919  .00000137  00000+0  00000+0 0  9994
2 63662   4.4859 279.9890 0003643 144.8376  78.9163  1.00273575  4242
TJS-19                  
1 63924U 25097A   26154.73757059 -.00000264  00000+0  00000+0 0  9999
2 63924   3.3094 317.2183 0001784 231.8983 109.9058  1.00271334  4001
CHINASAT 3B             
1 64062U 25106A   26153.67325432 -.00000033  00000+0  00000+0 0  9996
2 64062   0.0342  84.7176 0002846  22.8897 193.2201  1.00271300  3913
SXM-10                  
1 64290U 25122A   26154.51459282 -.00000005  00000+0  00000+0 0  9991
2 64290   0.0209  23.3149 0001903 355.0610 302.6854  1.00270821  3540
COSMOS 2589             
1 64467U 25131A   26154.76586953 -.00000279  00000+0  00000+0 0  9993
2 64467   0.0530  63.9284 0001603  88.0699 113.9489  1.00270027  3422
CHINASAT 9C             
1 64470U 25132A   26154.51392263 -.00000235  00000+0  00000+0 0  9992
2 64470   0.0377 262.2992 0003142 176.1032  90.7839  1.00270371  4014
MTG-S1                  
1 64723U 25143A   26154.56627177 -.00000020  00000+0  00000+0 0  9997
2 64723   0.6152 335.9902 0001234  38.1592  78.2599  1.00271533  3282
DROR 1                  
1 64784U 25148A   26154.56618510 -.00000022  00000+0  00000+0 0  9992
2 64784   0.0107 339.0195 0003144  52.0145  60.8124  1.00271687  3161
SHIYAN-29               
1 65486U 25196A   26154.10233705 -.00000263  00000+0  00000+0 0  9991
2 65486  28.8063  18.7146 0010482 170.5571 193.5595  1.00259086  2747
NUSANTARA LIMA (NUSANT*)
1 65588U 25205A   26154.58931316 -.00000345  00000+0  00000+0 0  9991
2 65588   0.0367 124.8771 0000558 341.5540 110.6215  1.00271379  2581
TJS-20                  
1 66142U 25238A   26154.50802927  .00000036  00000+0  00000+0 0  9997
2 66142   5.5005 299.6069 0004830 152.3806  45.2493  1.00271766  2196
CMS-03 (GSAT-7R)        
1 66311U 25249B   26154.58161183 -.00000065  00000+0  00000+0 0  9990
2 66311   0.0363 261.8409 0002892 140.8185 132.7421  1.00272591  2211
VIASAT-3 F2             
1 66454U 25261A   26154.48003581 -.00000221  00000+0  00000+0 0  9992
2 66454   0.0488 147.0250 0000282 308.3558 250.3730  1.00271211  2658
SHIJIAN-28 (SJ-28)      
1 66549U 25277A   26154.37603479 -.00000347  00000+0  00000+0 0  9993
2 66549   4.5741 272.3523 0000356  13.8840 217.8900  1.00271254  2017
TJS-22                  
1 66990U 25290A   26153.91428929  .00000006  00000+0  00000+0 0  9993
2 66990   1.5628 286.3984 0002050 334.2489  26.3257  1.00271227  1888
TJS-23                  
1 67226U 25306A   26153.64193049  .00000029  00000+0  00000+0 0  9991
2 67226   5.6206 297.5655 0004917 162.2526 197.8569  1.00271801  1745
FENGYUN 4C              
1 67246U 25312A   26154.60900358 -.00000311  00000+0  00000+0 0  9991
2 67246   0.0142  92.2508 0000678  64.0566  88.0027  1.00271054  1644
SHIJIAN-29A (SJ-29A)    
1 67302U 25315A   26154.72409998 -.00000057  00000+0  00000+0 0  9991
2 67302   3.3634  95.4411 0003386  17.9342 112.7527  1.00270294  1482
SHIJIAN-29B (SJ-29B)    
1 67403U 25315C   26154.72409998 -.00000057  00000+0  00000+0 0  9993
2 67403   3.3624  95.4313 0003541  19.3624 111.3782  1.00270298  1556
ELEKTRO-L 5             
1 67756U 26028A   26154.09003159 -.00000085  00000+0  00000+0 0  9996
2 67756   0.2781 306.8421 0001497 184.8708 228.3055  1.00271242  1119
JAM-E JAM 1             
1 67757U 26028B   26154.57363847  .00000168  00000+0  00000+0 0  9994
2 67757   0.2896 298.4889 0000674 305.5062 248.4606  1.00269849   981
ECHOSTAR 25             
1 68126U 26045A   26154.54603471  .00000000  00000+0  00000+0 0  9996
2 68126   0.0159 336.5026 0001523 110.5594 251.5317  1.00272515   851
