SCD 1                   
1 22490U 93009B   26200.89308296  .00000298  00000+0  30603-4 0  9997
2 22490  24.9708   5.6350 0042037 123.9966  29.1906 14.46129704765856
TECHSAT 1B (GO-32)      
1 25397U 98043D   26201.42974299  .00000017  00000+0  27497-4 0  9997
2 25397  99.0089 195.0299 0002307 106.7809 253.3622 14.24433990456064
SCD 2                   
1 25504U 98060A   26201.36582919  .00000267  00000+0  23850-4 0  9999
2 25504  24.9937 227.5486 0016975 113.3380 269.6052 14.45535699465133
DLR-TUBSAT              
1 25757U 99029B   26201.49845778  .00000017  00000+0  16035-4 0  9994
2 25757  98.6714 198.1017 0013062 247.2401 112.7414 14.52433892438086
TERRA                   
1 25994U 99068A   26201.58940008  .00000183  00000+0  46306-4 0  9990
2 25994  97.9437 249.8082 0003599 112.2250  31.9400 14.61126180414480
MAROC-TUBSAT            
1 27004U 01056D   26201.37162580 -.00000039  00000+0  86953-5 0  9996
2 27004  99.8103  18.8595 0020523  59.3212   6.8618 13.70263604230731
AQUA                    
1 27424U 02022A   26201.59890731  .00000387  00000+0  86838-4 0  9992
2 27424  98.4300 171.5543 0001306 102.1203  27.8992 14.62133097288157
SHIYAN-1 (SY-1)         
1 28220U 04012A   26201.18659579  .00007068  00000+0  21394-3 0  9994
2 28220  97.8677 281.4171 0004250 251.5023 108.5757 15.34524431216153
AURA                    
1 28376U 04026A   26201.53652960  .00000395  00000+0  89737-4 0  9999
2 28376  98.3433 158.2703 0001399  93.9388 266.1972 14.61372341171088
IRS-P5 (CARTOSAT-1)     
1 28649U 05017A   26201.29609458  .00000644  00000+0  70180-4 0  9999
2 28649  97.5306 222.8591 0001045  54.5474 305.5843 14.91124795148755
SINAH 1                 
1 28893U 05043D   26201.60851948  .00000154  00000+0  38573-4 0  9993
2 28893  98.2901 336.1347 0014779 166.8113 193.3478 14.64177543105410
RESURS-DK 1             
1 29228U 06021A   26201.41611342  .00000982  00000+0  61107-4 0  9992
2 29228  69.9301 253.5278 0007419 265.4127  94.6192 15.13330043107601
ARIRANG-2 (KOMPSAT-2)   
1 29268U 06031A   26201.63616803 -.00000013  00000+0  61225-5 0  9996
2 29268  97.8321  24.4657 0013768 333.1463 115.2229 14.64676913 66376
LAPAN-TUBSAT            
1 29709U 07001A   26201.58631084  .00000036  00000+0  10779-4 0  9997
2 29709  98.1361 201.5662 0013680  78.1189 282.1559 14.85979657 56117
HAIYANG-1B              
1 31113U 07010A   26201.35680707  .00000046  00000+0  33107-4 0  9991
2 31113  98.3519 181.9193 0014793 101.7483 258.5361 14.31034151  5385
COSMO-SKYMED 1          
1 31598U 07023A   26201.61872551  .00001904  00000+0  16970-3 0  9993
2 31598  97.8854  33.7580 0001786  97.0225 263.1200 14.97238293 34797
TERRASAR-X              
1 31698U 07026A   26201.45521513  .00000429  00000+0  23629-4 0  9999
2 31698  97.4462 208.6875 0001654  86.3294 273.8130 15.19149077 58275
WORLDVIEW-1 (WV-1)      
1 32060U 07041A   26201.57143329  .00003527  00000+0  14597-3 0  9993
2 32060  97.3904 320.8491 0002061 184.8634 175.2584 15.24593998 47968
YAOGAN-3                
1 32289U 07055A   26201.61900049  .00000943  00000+0  10128-3 0  9991
2 32289  97.8139 231.1666 0001357  81.0584 279.0788 14.90891271 10857
COSMO-SKYMED 2          
1 32376U 07059A   26201.64627986  .00000177  00000+0  28785-4 0  9999
2 32376  97.8897  24.7606 0001463  93.9292 266.2089 14.82152985  6963
RADARSAT-2              
1 32382U 07061A   26201.55385355  .00000258  00000+0  11688-3 0  9993
2 32382  98.5788 208.0104 0001329  85.4734 274.6601 14.29984841970727
CARTOSAT-2A             
1 32783U 08021A   26201.59721584  .00000151  00000+0  26993-4 0  9995
2 32783  97.7610 249.1628 0012049  10.5475 349.5988 14.79279880983747
HUANJING 1A (HJ-1A)     
1 33320U 08041A   26201.60950463  .00000499  00000+0  65874-4 0  9993
2 33320  97.6709 186.1603 0020014  33.0086 327.2373 14.84056325963365
HUANJING 1B (HJ-1B)     
1 33321U 08041B   26201.59394896  .00000806  00000+0  10341-3 0  9994
2 33321  97.6543 189.2153 0037960  74.3782 286.1617 14.83371603963367
GEOEYE 1                
1 33331U 08042A   26201.55827261  .00000206  00000+0  47641-4 0  9997
2 33331  98.1323 275.0912 0003568 326.9482  33.1497 14.64651966955030
THEOS                   
1 33396U 08049A   26201.57622891  .00000278  00000+0  15040-3 0  9995
2 33396  98.5548 257.7730 0001125  92.5171 267.6135 14.20137837922706
COSMO-SKYMED 3          
1 33412U 08054A   26201.60691425  .00001598  00000+0  11047-3 0  9992
2 33412  97.8251  60.7292 0016321 148.0889 212.1330 15.07136791961978
YAOGAN-4                
1 33446U 08061A   26201.56050463  .00000506  00000+0  68391-4 0  9996
2 33446  97.9302 134.8258 0013399 327.4811  32.5576 14.83257370950613
GOSAT (IBUKI)           
1 33492U 09002A   26201.54762056  .00000322  00000+0  65335-4 0  9990
2 33492  98.0916 312.2153 0001093  91.1486 268.9844 14.67537532936355
DEIMOS-1                
1 35681U 09041A   26201.62471049  .00000499  00000+0  80836-4 0  9991
2 35681  97.7446 357.4098 0002804  84.8596 275.2934 14.75268102911810
DUBAISAT-1              
1 35682U 09041B   26201.39393075  .00000421  00000+0  69838-4 0  9992
2 35682  98.0091 334.2959 0009533 330.8817  29.1859 14.75171313909991
OCEANSAT-2              
1 35931U 09051A   26201.58357054  .00000065  00000+0  69845-4 0  9990
2 35931  98.2325 185.1007 0017672 138.0572 222.1952 13.99656232884002
WORLDVIEW-2 (WV-2)      
1 35946U 09055A   26201.56500210  .00000045  00000+0  29168-4 0  9994
2 35946  98.4752 274.5601 0005486 117.0856 243.0891 14.37907882880440
SMOS                    
1 36036U 09059A   26201.13071554  .00000130  00000+0  55402-4 0  9991
2 36036  98.4431  27.9829 0001199  97.7912 262.3413 14.39737721878199
YAOGAN-7                
1 36110U 09069A   26201.39654793  .00000188  00000+0  33279-4 0  9996
2 36110  98.0025  87.0518 0023251 293.7752  66.1020 14.78038174894531
TANDEM-X                
1 36605U 10030A   26201.45521463  .00000100  00000+0  79367-5 0  9992
2 36605  97.4460 208.6898 0001899  95.3384 264.8068 15.19149380891690
CARTOSAT-2B             
1 36795U 10035A   26201.56605837  .00000579  00000+0  86019-4 0  9998
2 36795  97.9930 251.8988 0012755  84.7009 275.5657 14.78654946864782
YAOGAN-10               
1 36834U 10038A   26201.63716700  .00001096  00000+0  13341-3 0  9997
2 36834  97.8968 224.7751 0001585  83.6012  23.2862 14.85438922862173
COSMO-SKYMED 4          
1 37216U 10060A   26201.65895066 -.00000161  00000+0 -13657-4 0  9997
2 37216  97.8900  24.7744 0001479  86.6642 273.4740 14.82149298849528
RESOURCESAT-2           
1 37387U 11015A   26201.52087299  .00000021  00000+0  29528-4 0  9991
2 37387  98.7627 268.7294 0011862 156.3699 203.8026 14.21600328790918
HAIYANG-2A              
1 37781U 11043A   26201.68545558 -.00000012  00000+0  33995-4 0  9998
2 37781  99.3412 203.5905 0001725  19.0738 341.0475 13.73154724751254
RASAT                   
1 37791U 11044D   26201.58415770  .00000275  00000+0  56102-4 0  9996
2 37791  98.0578 292.4722 0021968  86.7872  38.4451 14.68196105798086
SRMSAT                  
1 37841U 11058D   26201.36756309  .00000330  00000+0  35428-4 0  9999
2 37841  19.9702 218.6370 0011604 208.2906 179.8338 14.11581727762516
PLEIADES 1A             
1 38012U 11076F   26201.61769468  .00000360  00000+0  87195-4 0  9999
2 38012  98.1961 276.2695 0001619  77.4293  58.8663 14.58549442776862
ZIYUAN 1-02C (ZY 1-02C) 
1 38038U 11079A   26201.62402767  .00000366  00000+0  13470-3 0  9997
2 38038  98.4051 268.2317 0005958 196.6725 305.9273 14.38238992764019
ARIRANG-3 (KOMPSAT-3)   
1 38338U 12025B   26201.63179372  .00000224  00000+0  53632-4 0  9994
2 38338  98.1189 158.5188 0005883  23.9496 336.1978 14.62231755756232
EXACTVIEW-1 (ADS-1B)    
1 38709U 12039C   26201.31228001  .00000045  00000+0  38900-4 0  9992
2 38709  98.9809 319.4557 0011893  78.1158 282.1353 14.24993042727422
SPOT 6                  
1 38755U 12047A   26201.60714890  .00000249  00000+0  63392-4 0  9999
2 38755  98.2099 268.5220 0001115  92.3089 267.8238 14.58540878737925
PLEIADES 1B             
1 39019U 12068A   26201.55715987  .00000149  00000+0  41954-4 0  9997
2 39019  98.1932 276.1472 0001483  78.6390 281.4976 14.58536164725716
GOKTURK 2               
1 39030U 12073A   26201.58007088  .00000282  00000+0  48321-4 0  9998
2 39030  97.6812  37.3358 0001045 103.8076 256.3251 14.75570997729437
LANDSAT 8               
1 39084U 13008A   26201.53566847  .00000142  00000+0  41596-4 0  9996
2 39084  98.2285 271.2721 0001345  91.7446 268.3906 14.57096385702759
SARAL                   
1 39086U 13009A   26201.62896287  .00000031  00000+0  27450-4 0  9993
2 39086  98.5559  27.7736 0002015 154.1393 205.9892 14.32896615700394
GAOFEN-1                
1 39150U 13018A   26201.60806529  .00000073  00000+0  17693-4 0  9997
2 39150  97.9077 272.9943 0017554 154.1374 206.0718 14.76521415713171
VNREDSAT 1              
1 39160U 13021B   26201.55910317  .00000175  00000+0  41283-4 0  9992
2 39160  97.9057 253.6918 0001519  82.2897 277.8480 14.64886818705174
ARIRANG-5 (KOMPSAT-5)   
1 39227U 13042A   26201.61978175 -.00000148  00000+0 -62144-5 0  9994
2 39227  97.6204  27.8504 0004755  42.6309 317.5285 15.04494630708882
SKYSAT-A                
1 39418U 13066C   26201.12557983  .00001551  00000+0  90738-4 0  9994
2 39418  97.3797 249.4729 0020934 195.8174 164.2407 15.13130846693463
DUBAISAT-2              
1 39419U 13066D   26201.59524815  .00001388  00000+0  88298-4 0  9990
2 39419  97.4584 190.8721 0009190 281.0546  78.9650 15.10391485691433
GPM-CORE                
1 39574U 14009C   26201.54791094  .00003589  00000+0  80846-4 0  9996
2 39574  64.9698 196.3455 0010866 263.6777  96.3126 15.45081309702961
SENTINEL-1A             
1 39634U 14016A   26201.55610721  .00000244  00000+0  61417-4 0  9997
2 39634  98.1735 208.5999 0001445  82.9304 277.2060 14.59174518654882
KAZEOSAT 1              
1 39731U 14024A   26201.60431671  .00000239  00000+0  85919-4 0  9992
2 39731  98.3188 273.2177 0001194  86.6261 273.5066 14.42039200643372
ALOS-2                  
1 39766U 14029A   26201.61743488  .00000480  00000+0  71144-4 0  9991
2 39766  97.9226 298.3038 0001587  90.8051 269.3342 14.79473474656528
KAZEOSAT 2              
1 40010U 14033A   26201.57300190  .00000509  00000+0  64763-4 0  9995
2 40010  97.5396  39.4186 0007808 199.5852 160.5065 14.85503997653917
HODOYOSHI-4             
1 40011U 14033B   26201.58610517  .00000437  00000+0  52791-4 0  9992
2 40011  97.5464  24.7987 0023163 191.3125 168.7575 14.88194063653778
DEIMOS-2                
1 40013U 14033D   26201.60935858  .00001322  00000+0  12975-3 0  9998
2 40013  97.5782  74.9170 0001491 104.6175 255.5211 14.93807556642714
HODOYOSHI-3             
1 40015U 14033F   26201.39471237  .00000546  00000+0  68881-4 0  9997
2 40015  97.6453   3.1059 0031442 243.9772 115.8205 14.85443490652559
SPOT 7                  
1 40053U 14034A   26201.60390764  .00000243  00000+0  58747-4 0  9993
2 40053  98.0607 263.2319 0001663  94.6842 265.4549 14.60983787642010
SKYSAT-B                
1 40072U 14037D   26201.61164875  .00000639  00000+0  76095-4 0  9995
2 40072  98.3858 162.4878 0005958 156.0742 204.0750 14.88099518650938
WORLDVIEW-3 (WV-3)      
1 40115U 14048A   26201.58742862  .00000413  00000+0  54594-4 0  9999
2 40115  97.8552 275.9576 0001695 148.1200 212.0118 14.85068964646863
GAOFEN-2                
1 40118U 14049A   26201.62195154  .00000945  00000+0  12905-3 0  9993
2 40118  98.0088 265.7947 0008598 119.5482 240.6589 14.80933973644183
YAOGAN-21               
1 40143U 14053A   26201.59153613  .00004169  00000+0  16082-3 0  9998
2 40143  97.1456 240.3999 0007061 348.7823  11.3258 15.26801659660051
YAOGAN-22               
1 40275U 14063A   26201.41998880 -.00000044  00000+0  64114-5 0  9999
2 40275 100.7769 353.2512 0006902 114.4075 245.7757 13.15531717564185
ASNARO                  
1 40298U 14070A   26201.61032641  .00004673  00000+0  22371-3 0  9996
2 40298  97.3435 276.8245 0004596  75.5209 284.6536 15.19425312649086
YAOGAN-24               
1 40310U 14072A   26201.63579678  .00000576  00000+0  91020-4 0  9997
2 40310  98.1537 339.2600 0015062 152.6327 207.5678 14.76123390628654
CBERS 4                 
1 40336U 14079A   26201.63344773  .00000236  00000+0  96624-4 0  9996
2 40336  98.3509 257.4127 0000591  67.1964 292.9285 14.35517694608756
YAOGAN-26               
1 40362U 14088A   26201.61791253  .00013072  00000+0  24669-3 0  9993
2 40362  97.0657 201.0752 0001126 301.4780  58.6361 15.48583321642877
SMAP                    
1 40376U 15003A   26201.58398573  .00000200  00000+0  47670-4 0  9997
2 40376  98.1286 208.2071 0001631  93.0160 267.1229 14.63391753612501
KOMPSAT-3A              
1 40536U 15014A   26201.57902318  .00023252  00000+0  31710-3 0  9993
2 40536  97.6904 195.4269 0055483  56.6304 304.0242 15.55650444627009
SENTINEL-2A             
1 40697U 15028A   26201.57135036  .00000108  00000+0  57770-4 0  9991
2 40697  98.5670 275.9473 0001323  96.4078 263.7256 14.30815688578503
GAOFEN-8                
1 40701U 15030A   26201.60344620  .00012690  00000+0  25217-3 0  9994
2 40701  97.6901  37.0067 0009726  79.0524 281.1819 15.47072672616611
CARBONITE 1 (CBNT-1)    
1 40718U 15032D   26201.56703933  .00000345  00000+0  47829-4 0  9993
2 40718  97.6529  18.2399 0014356 179.0702 181.0542 14.83674297594298
YAOGAN-27               
1 40878U 15040A   26201.62974395  .00000236  00000+0  73397-3 0  9995
2 40878 100.1180 186.5640 0008701 133.1726 227.0116 13.16072183522065
GAOFEN-9 01             
1 40894U 15047A   26201.59825975  .00000498  00000+0  67240-4 0  9996
2 40894  97.6263 235.7733 0028082  33.3992 326.8987 14.82941024585140
YAOGAN-28               
1 41026U 15064A   26201.66390478  .00004170  00000+0  15599-3 0  9996
2 41026  97.3115 339.2604 0011960  76.2618 283.9952 15.27800859595793
YAOGAN-29               
1 41038U 15069A   26201.57421913  .00000668  00000+0  88598-4 0  9991
2 41038  98.0018 230.2581 0000207  14.4980 345.6240 14.83110125575579
KENT RIDGE 1            
1 41167U 15077B   26200.83884566  .00002305  00000+0  63189-4 0  9997
2 41167  14.9808  23.1228 0008269 340.3146  19.6856 15.23298386586084
GAOFEN-4                
1 41194U 15083A   26201.28282259 -.00000337  00000+0  00000+0 0  9997
2 41194   0.4407  83.8785 0004167 121.8602 299.8332  1.00270897 38868
JASON-3                 
1 41240U 16002A   26201.63381959 -.00000067  00000+0 -17580-4 0  9994
2 41240  66.0416  55.5175 0008132 270.4077  89.6010 12.87628846491555
SENTINEL-3A             
1 41335U 16011A   26201.59836389  .00000028  00000+0  29542-4 0  9992
2 41335  98.6233 268.4993 0001313  89.0388 271.0943 14.26740696542826
ZIYUAN 3-02 (ZY 3-02)   
1 41556U 16033A   26201.60267302  .00003018  00000+0  13700-3 0  9996
2 41556  97.3819 276.7347 0014664 166.4432 193.7200 15.21465264563061
CARTOSAT-2C             
1 41599U 16040A   26201.58538532  .00002774  00000+0  13461-3 0  9996
2 41599  97.4458 261.1008 0008998  28.3388 331.8334 15.19287115558789
SKYSAT-C1               
1 41601U 16040C   26201.36374534  .00004976  00000+0  14048-3 0  9994
2 41601  96.9554 231.2938 0000631 198.3803 161.7420 15.36798698562963
LAPAN-A3                
1 41603U 16040E   26201.60684618  .00001822  00000+0  58900-4 0  9993
2 41603  97.1508 196.6619 0008331 252.2421 107.7913 15.33297973559935
GAOFEN-3                
1 41727U 16049A   26201.59351678  .00000039  00000+0  25042-4 0  9994
2 41727  98.4021 208.8761 0001783  82.9340 277.2052 14.42219059523466
SKYSAT-C4               
1 41771U 16058B   26201.01802839  .00010322  00000+0  18875-3 0  9991
2 41771  96.9171 221.4354 0003555 111.3811 248.7822 15.49535299550555
SKYSAT-C5               
1 41772U 16058C   26201.10448900  .00003899  00000+0  12170-3 0  9990
2 41772  97.0452 240.2632 0003067 148.6501 211.4926 15.33757415548799
SKYSAT-C2               
1 41773U 16058D   26201.02132536  .00007045  00000+0  16310-3 0  9994
2 41773  97.0163 221.8941 0000811 320.8207  39.2982 15.42746945550111
SKYSAT-C3               
1 41774U 16058E   26201.06439642  .00014503  00000+0  22691-3 0  9993
2 41774  96.8998 230.6733 0002719 127.1966 232.9537 15.53846132551212
ALSAT-1B                
1 41785U 16059C   26201.60993354  .00000383  00000+0  67991-4 0  9995
2 41785  97.7760 208.9322 0010647 114.4721 245.7599 14.72297471525497
PATHFINDER 1            
1 41787U 16059E   26200.99737225  .00000278  00000+0  56635-4 0  9997
2 41787  97.8179 198.7949 0029946 101.1531 259.3044 14.67696330524529
SCATSAT 1               
1 41790U 16059H   26201.14852277  .00000698  00000+0  98240-4 0  9998
2 41790  98.1173 265.2524 0055545 140.8715 219.6533 14.79594675106461
GOKTURK 1A              
1 41875U 16073A   26201.62662733  .00000253  00000+0  58780-4 0  9999
2 41875  98.1202  95.7698 0001437  82.0789 278.0576 14.62795688513710
RESOURCESAT-2A          
1 41877U 16074A   26201.57282917 -.00000002  00000+0  19404-4 0  9991
2 41877  98.7512 274.8024 0002099  16.3919 343.7325 14.21609416499044
CARTOSAT-2D             
1 41948U 17008A   26201.61708407  .00002905  00000+0  14074-3 0  9990
2 41948  97.4085 260.2953 0006395 123.6358 236.5488 15.19310163522655
SENTINEL-2B             
1 42063U 17013A   26201.56415843  .00000110  00000+0  58700-4 0  9999
2 42063  98.5677 275.8659 0001243  94.2750 265.8575 14.30816369489413
CARTOSAT-2E             
1 42767U 17036C   26201.56909419  .00003335  00000+0  16133-3 0  9997
2 42767  97.4251 260.8181 0003851 170.5745 189.5563 15.19279754503216
FORMOSAT-5              
1 42920U 17049A   26201.56892267  .00000030  00000+0  18777-4 0  9990
2 42920  98.2242 276.1353 0010954 347.0788  13.0125 14.50908695471516
SENTINEL-5P             
1 42969U 17064A   26201.33024003  .00000008  00000+0  24691-4 0  9997
2 42969  98.7929 143.2272 0001201  93.1734 266.9580 14.19523793454269
SKYSAT-C11              
1 42987U 17068A   26201.37527206  .00018375  00000+0  23298-3 0  9995
2 42987  97.4390 351.7002 0001469 152.3374 207.7961 15.59510332488418
SKYSAT-C10              
1 42988U 17068B   26201.54028384  .00006539  00000+0  19390-3 0  9995
2 42988  97.4544 338.7331 0001562 110.7629 249.3782 15.35181144487472
SKYSAT-C9               
1 42989U 17068C   26201.33533047  .00007703  00000+0  18087-3 0  9996
2 42989  97.4466 339.7827 0008192  27.8718 332.2966 15.42289110487869
SKYSAT-C8               
1 42990U 17068D   26201.33017271  .00005844  00000+0  16092-3 0  9992
2 42990  97.4562 338.4483 0001301 106.8061 253.3326 15.37550889487407
SKYSAT-C7               
1 42991U 17068E   26201.32481942  .00005903  00000+0  16275-3 0  9991
2 42991  97.4573 339.4349 0005225   3.4837 356.6443 15.37500680487461
SKYSAT-C6               
1 42992U 17068F   26201.34562829  .00005374  00000+0  16465-3 0  9991
2 42992  97.4611 339.2861 0004954  75.8351 284.3442 15.34222198487406
CARTOSAT-2F             
1 43111U 18004A   26201.60191209  .00002308  00000+0  11293-3 0  9993
2 43111  97.4764 260.9068 0002762 124.2963 235.8534 15.19197108472403
GAOFEN-1 02             
1 43259U 18031A   26201.57393693  .00000264  00000+0  45355-4 0  9999
2 43259  98.0505 264.0048 0001510 250.6840 109.4206 14.76475959447620
GAOFEN-1 03             
1 43260U 18031B   26201.61983916  .00000334  00000+0  55434-4 0  9996
2 43260  98.0500 263.9049 0001973 358.9631   1.1574 14.76466785447622
GAOFEN-1 04             
1 43262U 18031D   26201.59559155  .00000380  00000+0  62095-4 0  9991
2 43262  98.0505 264.0759 0000923  52.8911 307.2383 14.76441911447615
SENTINEL-3B             
1 43437U 18039A   26201.43125849  .00000041  00000+0  35094-4 0  9998
2 43437  98.6232 268.4837 0001258 118.8128 241.3179 14.26737312428867
GAOFEN-5 01             
1 43461U 18043A   26201.35496766  .00000162  00000+0  43467-4 0  9997
2 43461  98.4594 173.6424 0001785  20.7865 339.3407 14.60625420436535
GAOFEN-6                
1 43484U 18048A   26201.61837779  .00000833  00000+0  12735-3 0  9997
2 43484  98.0948 264.3331 0012020  66.4971 293.7500 14.76389205438324
GAOFEN-11 01            
1 43585U 18063A   26201.61971052  .00014094  00000+0  20263-3 0  9998
2 43585  97.1266 268.4223 0003806 179.0893 181.0370 15.56177571445546
ICESAT-2                
1 43613U 18070A   26201.54972639  .00005441  00000+0  19778-3 0  9997
2 43613  92.0086 299.9954 0005004  46.7276 313.4390 15.28231022437555
HYSIS                   
1 43719U 18096A   26201.57292112  .00000698  00000+0  10231-3 0  9990
2 43719  97.9820 268.0567 0001776  83.0223 277.1190 14.78677139412359
KAZSTSAT                
1 43783U 18099AB  26201.05321022  .00000021  00000+0  61511-5 0  9999
2 43783  97.4309 231.5017 0007190 320.5226  39.5473 14.99958351416236
SAUDISAT 5A             
1 43831U 18102A   26201.62411441  .00003099  00000+0  11478-3 0  9999
2 43831  97.3045 262.5639 0009906  26.2034 333.9705 15.28353010420782
SAUDISAT 5B             
1 43833U 18102C   26201.63752314  .00002968  00000+0  10921-3 0  9995
2 43833  97.3155 265.7074 0010676  27.5066 332.6737 15.28594459420908
GAOFEN-10R              
1 44622U 19066A   26201.61885122  .00000575  00000+0  77437-4 0  9992
2 44622  98.0512 155.4444 0006580  38.3757 321.7923 14.83063947367338
CARTOSAT-3              
1 44804U 19081A   26201.61612193  .00002013  00000+0  98699-4 0  9999
2 44804  97.4282 262.9415 0012590  41.9899 318.2298 15.19206243368542
GAOFEN-12 01            
1 44819U 19082A   26201.60302655  .00000176  00000+0  29603-4 0  9991
2 44819  97.8112 207.1022 0000720  65.1228 295.0060 14.80481916359037
CSG-1                   
1 44873U 19092A   26201.60409181  .00000163  00000+0  27023-4 0  9994
2 44873  97.8899  24.7244 0001461  94.8966 265.2414 14.82159264356421
NEMO-HD                 
1 46277U 20061F   26201.61617998  .00007187  00000+0  15322-3 0  9991
2 46277  97.1896 263.2424 0001032 112.2201 247.9158 15.45209521327143
SENTINEL-6A             
1 46984U 20086A   26201.34583036 -.00000063  00000+0 -84210-5 0  9990
2 46984  66.0411  66.1822 0007784 269.6503  90.3620 12.80930231264576
CAS500-1                
1 47932U 21022A   26201.63363275  .00003384  00000+0  15945-3 0  9992
2 47932  97.3853  96.2024 0005741 153.7174 206.4354 15.20165978295846
GAOFEN-12 02            
1 48079U 21026A   26201.61768603  .00000173  00000+0  29688-4 0  9994
2 48079  97.9939 199.6645 0006107 118.1946 241.9883 14.80318408286705
PLEIADES NEO 3          
1 48268U 21034A   26200.33107218  .00000157  00000+0  26538-4 0  9993
2 48268  97.8937 274.6355 0001393  96.6622 263.4750 14.81672056282416
PLEIADES NEO 4          
1 49070U 21073E   26201.58040991  .00001083  00000+0  14425-3 0  9990
2 49070  97.8936 275.8631 0001390  96.0029 264.1342 14.81675743266311
LANDSAT 9               
1 49260U 21088A   26201.43279144  .00000162  00000+0  46150-4 0  9993
2 49260  98.2265 271.2051 0001082  92.1239 268.0083 14.57097708255849
CSG-2                   
1 51444U 22008A   26200.35510889  .00000311  00000+0  45604-4 0  9996
2 51444  97.8896  23.4868 0001661  89.8481 270.2922 14.82176378241356
GAOFEN-12 03            
1 52912U 22069A   26201.58567728  .00000661  00000+0  93878-4 0  9998
2 52912  97.8230  88.6069 0002341  67.9980 292.1480 14.80081265219559
SWOT                    
1 54754U 22173A   26201.57172864  .00000017  00000+0  13057-4 0  9998
2 54754  77.6117 350.2397 0000229  67.5102 292.6074 14.00172578183826
GAOFEN-12 04            
1 57654U 23123A   26201.60646144  .00000505  00000+0  74012-4 0  9997
2 57654  97.9096 119.1232 0003227  38.7040 321.4403 14.79781177157578
PARS 1                  
1 59065U 24039Q   26201.64654356  .00007633  00000+0  15626-3 0  9994
2 59065  97.4847 183.6409 0009082   8.3507 351.7892 15.46363011133810
RESURS-P 4              
1 59371U 24061A   26201.63503380  .00001790  00000+0  59824-4 0  9995
2 59371  97.2761 148.9575 0003202  81.4578 278.7027 15.32299462128881
LEGION 1                
1 59625U 24081A   26201.54248314  .00001890  00000+0  99414-4 0  9992
2 59625  97.5008 279.0459 0007841 247.4025 112.6379 15.16864206122595
LEGION 2                
1 59626U 24081B   26201.57294559  .00001955  00000+0  10270-3 0  9992
2 59626  97.5007 279.1727 0010640 213.1382 146.9185 15.16844204122604
ALOS-4 (DAICHI-4)       
1 60182U 24123A   26200.82518829  .00000618  00000+0  89649-4 0  9996
2 60182  97.9221 297.5326 0001542  98.1551 261.9835 14.79476713110706
LEGION 3                
1 60452U 24146A   26201.41155330  .00001327  00000+0  82208-4 0  9993
2 60452  45.0013 212.4280 0007693   2.7396 357.3524 15.15672199107062
LEGION 4                
1 60453U 24146B   26201.47709924  .00002212  00000+0  12774-3 0  9998
2 60453  45.0022 303.9439 0009312 146.2803 213.8670 15.15702766105927
SENTINEL-2C             
1 60989U 24157A   26201.17955731  .00000041  00000+0  32384-4 0  9998
2 60989  98.5681 275.4927 0001028 106.0889 254.0407 14.30816557 97705
IONOSFERA-M 1           
1 61735U 24199A   26201.59853810  .00000006  00000+0  22273-4 0  9992
2 61735  98.7128  74.4111 0002075  64.9338 295.2055 14.22759817132453
IONOSFERA-M 2           
1 61736U 24199B   26201.56242928  .00000001  00000+0  20129-4 0  9995
2 61736  98.7126  74.2857 0000706 130.7554 229.3685 14.22763137135571
PRSC-EO1                
1 62725U 25012A   26201.61958814  .00004105  00000+0  20709-3 0  9995
2 62725  97.4207 273.4232 0007146 131.3625 228.8224 15.17659640 83266
BIOMASS                 
1 63772U 25090A   26201.51370636  .00000371  00000+0  73818-4 0  9994
2 63772  98.0754  28.3438 0001442  90.1809 269.9561 14.67536383 65573
GOSAT-GW (IBUKI GW)     
1 64694U 25141A   26201.59906400  .00000297  00000+0  60819-4 0  9991
2 64694  98.0564 138.3734 0001430  86.4810 273.6558 14.67554701 56745
IONOSFERA-M 3           
1 64876U 25155A   26201.61002169  .00000014  00000+0  25951-4 0  9995
2 64876  98.6044 162.6773 0002419 104.2519 255.8927 14.21491362 51157
IONOSFERA-M 4           
1 64877U 25155B   26201.64480550  .00000016  00000+0  27047-4 0  9993
2 64877  98.6043 162.6283 0001894  94.0466 266.0928 14.21493804 51154
MICROCARB               
1 64899U 25156A   26201.17004671  .00000281  00000+0  51611-4 0  9990
2 64899  98.0071 277.8021 0017996 155.3183 204.8890 14.72888403 52821
CO3D 3                  
1 64900U 25156B   26201.55978475  .00002471  00000+0  11724-3 0  9990
2 64900  97.4331 279.7734 0001726  90.4724 269.6709 15.20195701 54604
CO3D 4                  
1 64901U 25156C   26201.55993786  .00001635  00000+0  78634-4 0  9998
2 64901  97.4336 279.7731 0001868 142.4125 217.7241 15.20192398 54601
CO3D 2                  
1 64902U 25156D   26201.52659444  .00002337  00000+0  11103-3 0  9993
2 64902  97.4332 279.6393 0001178  92.0776 268.0594 15.20201512 54594
CO3D 1                  
1 64903U 25156E   26201.52674831  .00002414  00000+0  11460-3 0  9993
2 64903  97.4331 279.6395 0001336 102.5352 257.6033 15.20203530 54593
PRSC-S1                 
1 65055U 25164A   26201.60887654  .00002695  00000+0  19018-3 0  9997
2 65055  41.1302  99.5463 0007461 230.6794 129.3359 15.06662965 53476
SENTINEL-6B             
1 66514U 25264A   26201.34617827 -.00000057  00000+0  18219-4 0  9997
2 66514  66.0411  66.3076 0007839 268.5239  91.4878 12.80930279 31419
CAS500-3                
1 66655U 25274F   26201.35937026  .00000653  00000+0  76276-4 0  9999
2 66655  97.7433 128.6560 0005838  23.4066 336.7416 14.88390733 35088
CSG-3                   
1 67304U 26001A   26201.41422676  .00000150  00000+0  25423-4 0  9997
2 67304  97.8898  24.5366 0001469  93.0499 267.0882 14.82165425 29384
PRSC-E03                
1 68835U 26092A   26201.45659774  .00001074  00000+0  77985-4 0  9998
2 68835  38.0004 253.4742 0005006 283.2867  76.7337 15.06821808 12972
CAS500-2                
1 69013U 26100AK  26201.25151903  .00003141  00000+0  14994-3 0  9993
2 69013  97.3849  98.4689 0008086 232.6309 127.4190 15.19756868 11835
