HST                     
1 20580U 90037B   26239.58024444  .00006692  00000+0  20632-3 0  9995
2 20580  28.4733 312.3584 0001731 204.2467 155.8048 15.31478940799522
POLAR                   
1 23802U 96013A   26239.66966289  .00000229  00000+0  00000+0 0  9999
2 23802  79.9583 226.1948 6543353 206.6287  94.8024  1.29845830145782
SWAS                    
1 25560U 98071A   26239.83356316  .00003106  00000+0  19720-3 0  9991
2 25560  69.8951  42.7013 0004658 173.5838 186.5387 15.09989928508082
CXO                     
1 25867U 99040B   26240.77966955  .00001030  00000+0  00000+0 0  9990
2 25867  57.1441 114.7944 7726724 309.5210   0.7071  0.37801396 17591
XMM-NEWTON              
1 25989U 99066A   26241.15261303  .00000181  00000+0  00000+0 0  9997
2 25989  64.1037 282.0428 4655771  63.5985   0.0586  0.50122149 23371
TERRA                   
1 25994U 99068A   26239.93458424  .00000331  00000+0  76308-4 0  9996
2 25994  97.9399 286.6156 0002694  35.5388  87.5655 14.61150708420087
CLUSTER II-FM7 (SAMBA)  
1 26410U 00041A   26228.35648488  .00204628 -13535-2  00000+0 0  9995
2 26410 149.5559  61.8704 9119992 279.7536 359.6603  0.44877167 20578
CLUSTER II-FM8 (TANGO)  
1 26464U 00045B   26238.19592919  .00357125 -22476-2  00000+0 0  9993
2 26464 149.5891  64.7882 9133341 282.6559   2.0484  0.44543471 20627
TIMED                   
1 26998U 01055B   26239.59328289  .00001021  00000+0  95964-4 0  9993
2 26998  74.0659  91.2300 0002271 253.4194 106.6741 14.95425689341491
CORIOLIS                
1 27640U 03001A   26239.43684550  .00000103  00000+0  69086-4 0  9996
2 27640  98.7162 245.2436 0014239  12.6765 347.4767 14.19962138224332
SORCE                   
1 27651U 03004A   26239.92491936  .00002956  00000+0  22006-3 0  9997
2 27651  39.9895 212.2777 0018117 210.7151 149.2584 15.04034110282700
MOST                    
1 27843U 03031D   26239.45248973  .00000061  00000+0  48019-4 0  9997
2 27843  98.7077 246.1924 0010747  51.0772 309.1362 14.21334892200837
SCISAT 1                
1 27858U 03036A   26239.46759220  .00000655  00000+0  88154-4 0  9994
2 27858  73.9305  29.7054 0006118  74.0837 286.1014 14.81521082242003
SWIFT                   
1 28485U 04047A   26239.63698454  .00128786  00000+0  76151-3 0  9993
2 28485  20.5523 350.7005 0000742 166.1952 193.8516 15.76320652198120
HINODE (SOLAR-B)        
1 29479U 06041A   26239.31306878  .00000637  00000+0  11752-3 0  9994
2 29479  98.0555 254.4211 0018761  64.5520 295.7624 14.68703921 65310
SHIJIAN-6 02A (SJ-6 02A)
1 29505U 06046A   26239.90865132  .00003866  00000+0  19557-3 0  9995
2 29505  97.6318 281.5293 0001405 226.5024 133.6093 15.17644962 83144
SHIJIAN-6 02B (SJ-6 02B)
1 29506U 06046B   26239.98884058  .00000060  00000+0  93259-5 0  9998
2 29506  97.7053 268.5781 0015463 178.5770 181.5501 15.01472033 81518
FGRST (GLAST)           
1 33053U 08029A   26239.65781322  .00003620  00000+0  13053-3 0  9994
2 33053  25.5824  68.0998 0008576  89.9425 270.2096 15.24265608  6602
SDO                     
1 36395U 10005A   26239.58021491 -.00000062  00000+0  00000+0 0  9991
2 36395  34.7955  85.2562 0001581  74.2501 283.4635  1.00275921 60771
CRYOSAT 2               
1 36508U 10013A   26239.89631885  .00000187  00000+0  45695-4 0  9995
2 36508  92.0309 294.7244 0002668  87.0531 273.0981 14.51901108868489
X-SAT                   
1 37389U 11015C   26239.90483494  .00000244  00000+0  12095-3 0  9990
2 37389  98.3586 213.5379 0014895 128.8119 231.4394 14.25224640797894
GCOM-W1 (SHIZUKU)       
1 38337U 12025A   26239.45964236  .00000409  00000+0  10086-3 0  9995
2 38337  98.2045 178.9414 0001381  89.5158  27.0925 14.57121598759411
NUSTAR                  
1 38358U 12031A   26240.00003472  .00003903  00000+0  18479-3 0  9990
2 38358   6.0248 215.2174 0006793  98.5451 241.0758 15.09396034  1309
NEOSSAT                 
1 39089U 13009D   26239.91638242  .00000105  00000+0  51026-4 0  9992
2 39089  98.4218  58.2622 0011719  37.8288 322.3720 14.35847925707037
BRITE-AUSTRIA           
1 39091U 13009F   26239.94889315  .00000150  00000+0  65435-4 0  9996
2 39091  98.4038  57.6284 0010784  31.9828 328.2011 14.36566480707351
IRIS                    
1 39197U 13033A   26239.47615707  .00000986  00000+0  11851-3 0  9999
2 39197  97.9297  78.5278 0025839  85.8378 274.5790 14.86009503710960
HISAKI (SPRINT-A)       
1 39253U 13049A   26239.93581233  .00000095  00000+0  37473-4 0  9996
2 39253  29.7191 215.2342 0136699 238.4538 120.2620 13.55549410641167
CASSIOPE                
1 39265U 13055A   26239.88523947  .00055805 -87433-7  57440-3 0  9996
2 39265  80.9167 339.3154 0274780 179.6459 180.5029 15.29923990678617
STSAT-3                 
1 39422U 13066G   26239.95070578  .00002174  00000+0  16554-3 0  9996
2 39422  97.6258 208.7160 0010335 142.5916 217.6031 15.03087301694987
SWARM B                 
1 39451U 13067A   26239.87592962  .00003237  00000+0  11392-3 0  9992
2 39451  87.7470 320.5515 0003246 100.1149 260.0467 15.28954596694197
SWARM A                 
1 39452U 13067B   26239.91450096  .00010377  00000+0  18168-3 0  9990
2 39452  87.3323  29.5823 0002348  88.1179 272.0351 15.50443257717361
SWARM C                 
1 39453U 13067C   26239.91440830  .00010420  00000+0  18242-3 0  9998
2 39453  87.3327  28.1646 0002329  88.8751 271.2776 15.50445000717322
BRITE-CA1 (TORONTO)     
1 40020U 14033L   26239.92050200  .00000712  00000+0  11392-3 0  9995
2 40020  97.9828   7.5634 0079436  48.0004 312.7933 14.72794752652774
OCO 2                   
1 40059U 14035A   26239.91426308  .00000369  00000+0  91955-4 0  9996
2 40059  98.2043 180.1248 0001616  88.6726 271.4658 14.57087946646494
BRITE-PL2 (HEWELIUSZ)   
1 40119U 14049B   26239.73551067  .00002211  00000+0  20840-3 0  9991
2 40119  97.9151 352.3178 0012789 227.8007 132.2128 14.94809164652133
MMS 1                   
1 40482U 15011A   26240.00003472 -.00001947  00000+0  00000+0 0  9996
2 40482  72.9683 347.9296 8278709 168.9774  64.5622  0.28315908  1369
MMS 2                   
1 40483U 15011B   26240.00003472 -.00001949  00000+0  00000+0 0  9999
2 40483  72.9725 347.9286 8281769 168.9791  64.5383  0.28315404  1360
MMS 3                   
1 40484U 15011C   26240.00003472 -.00001948  00000+0  00000+0 0  9999
2 40484  72.9721 347.9405 8279912 168.9874  64.5171  0.28315853  1362
MMS 4                   
1 40485U 15011D   26240.00003472 -.00001948  00000+0  00000+0 0  9990
2 40485  72.9661 347.9246 8280175 168.9971  64.5094  0.28315407  1369
ASTROSAT                
1 40930U 15052A   26239.66774350  .00001713  00000+0  12621-3 0  9995
2 40930   5.9987   0.7943 0008275 332.5706  27.3985 14.82617656590450
DAMPE                   
1 41173U 15078A   26240.00397492  .00001106  00000+0  39553-4 0  9991
2 41173  97.4590 245.8430 0011918 172.4320 187.7103 15.30941985595536
PISAT                   
1 41784U 16059B   26239.45803875  .00000964  00000+0  17122-3 0  9991
2 41784  97.8230 236.8685 0028486 340.8051  19.2080 14.69099439530206
HXMT (HUIYAN)           
1 42758U 17034A   26239.82052163  .00004651  00000+0  22656-3 0  9999
2 42758  43.0147 144.0026 0032689 241.1091 118.6477 15.18999104508554
FLYING LAPTOP           
1 42831U 17042G   26239.96606043  .00002354  00000+0  18597-3 0  9994
2 42831  97.4963  32.8951 0015972 242.9144 117.0452 15.01518857497221
ZHANGHENG 1-01 (CSES-1) 
1 43194U 18015C   26239.92026772  .00006168  00000+0  27983-3 0  9995
2 43194  97.6934  47.0354 0016160  22.7876 337.4073 15.21085529475540
SALSAT                  
1 46495U 20068K   26239.81286460  .00007765  00000+0  26404-3 0  9994
2 46495  97.8878 247.3002 0010920  57.7473 302.4824 15.30702998326312
IXPE                    
1 49954U 21121A   26240.00003472  .00018646  00000+0  10310-2 0  9999
2 49954   0.2290 133.7077 0007216  88.3405 148.6859 15.10836665  5690
SMILE                   
1 69123U 26109A   26239.15083536  .00000698  00000+0  00000+0 0  9993
2 69123  70.0225 206.3680 8216250 286.1373 359.9692  0.47509459   273
