DMSP 5D-3 F16 (USA 172) 
1 28054U 03048A   26154.60226677  .00000025  00000+0  36951-4 0  9992
2 28054  98.9894 178.3403 0007033 176.3810 341.8537 14.14481848167562
METEOSAT-9 (MSG-2)      
1 28912U 05049B   26153.93181330  .00000131  00000+0  00000+0 0  9998
2 28912   9.3297  54.3074 0001283   6.0478 212.2961  1.00278852  6851
DMSP 5D-3 F17 (USA 191) 
1 29522U 06050A   26154.59311246  .00000057  00000+0  51799-4 0  9996
2 29522  98.7378 161.4414 0011324  94.1050 266.1418 14.14990989 10503
FENGYUN 3A              
1 32958U 08026A   26154.44398347  .00000099  00000+0  67514-4 0  9997
2 32958  98.6881  95.5346 0008990 160.5127 199.6395 14.19568113933454
GOES 14                 
1 35491U 09033A   26154.60920412 -.00000222  00000+0  00000+0 0  9994
2 35491   1.6552  83.2032 0002158 358.5911 179.1557  1.00115819  6455
DMSP 5D-3 F18 (USA 210) 
1 35951U 09057A   26154.49285835  .00000286  00000+0  17140-3 0  9997
2 35951  98.9032 135.2922 0009963 293.1265  66.8858 14.14888769857653
EWS-G2 (GOES 15)        
1 36411U 10008A   26154.57953183  .00000031  00000+0  00000+0 0  9995
2 36411   1.2405  83.0929 0005516  34.9579  46.1548  1.00276023 59502
COMS 1                  
1 36744U 10032A   26152.73864208 -.00000334  00000+0  00000+0 0  9993
2 36744   4.7700  75.5552 0001064 351.7830 216.9341  1.00271905 50939
FENGYUN 3B              
1 37214U 10059A   26154.59270860  .00000077  00000+0  63030-4 0  9996
2 37214  98.9622 200.5487 0021182 223.4828 240.2137 14.14838277805506
SUOMI NPP               
1 37849U 11061A   26154.59574801  .00000097  00000+0  67031-4 0  9993
2 37849  98.7951  95.5650 0002239  35.8345 324.2981 14.19514394756510
METEOSAT-10 (MSG-3)     
1 38552U 12035B   26153.99660230  .00000005  00000+0  00000+0 0  9999
2 38552   4.6383  61.0835 0001907 337.3022 211.9971  1.00275412 50714
METOP-B                 
1 38771U 12049A   26154.53369129  .00000136  00000+0  82090-4 0  9990
2 38771  98.6510 206.3046 0002979  50.4000 309.7440 14.21428876711328
INSAT-3D                
1 39216U 13038B   26154.59260650 -.00000328  00000+0  00000+0 0  9999
2 39216   1.8909  82.7115 0000940 345.9708 166.2209  1.00269783 46948
FENGYUN 3C              
1 39260U 13052A   26154.61583315  .00000120  00000+0  81875-4 0  9996
2 39260  98.4980 129.1145 0015794  64.4091 295.8714 14.15751750656642
METEOR-M 2              
1 40069U 14037A   26154.63069794  .00000105  00000+0  67419-4 0  9992
2 40069  98.5106 130.8498 0007054  76.8856 283.3109 14.21456905617398
HIMAWARI-8              
1 40267U 14060A   26154.59477318 -.00000263  00000+0  00000+0 0  9992
2 40267   0.0161 357.1038 0000981  89.6096 160.1301  1.00272955 42629
FENGYUN 2G              
1 40367U 14090A   26153.96604253 -.00000292  00000+0  00000+0 0  9998
2 40367   5.6039  72.9861 0003383 154.7339 110.9679  1.00279700 41854
METEOSAT-11 (MSG-4)     
1 40732U 15034A   26154.28360503  .00000074  00000+0  00000+0 0  9993
2 40732   3.1675  71.1861 0001624   2.8008 289.1983  1.00275961  7070
ELEKTRO-L 2             
1 41105U 15074A   26154.06484462 -.00000108  00000+0  00000+0 0  9998
2 41105   6.6592  70.6949 0001283 281.6013 268.0921  1.00272380 38362
SENTINEL-3A             
1 41335U 16011A   26154.54124050  .00000143  00000+0  77297-4 0  9997
2 41335  98.6252 222.1203 0001305 106.0510 254.0814 14.26736056536114
INSAT-3DR               
1 41752U 16054A   26154.58161183 -.00000065  00000+0  00000+0 0  9996
2 41752   0.1391  86.9874 0010331 189.3352 259.1021  1.00271331 35686
HIMAWARI-9              
1 41836U 16064A   26154.38097481 -.00000263  00000+0  00000+0 0  9997
2 41836   0.0404 176.3965 0001578 303.9244  49.4381  1.00271020 35072
GOES 16                 
1 41866U 16071A   26154.62829279 -.00000079  00000+0  00000+0 0  9998
2 41866   0.3058  85.6641 0000714 317.2511 330.7028  1.00271270 34960
FENGYUN 4A              
1 41882U 16077A   26154.59147983 -.00000345  00000+0  00000+0 0  9999
2 41882   2.2888  80.4312 0008161 151.6017 356.6593  1.00276901 34794
CYGFM05                 
1 41884U 16078A   26153.87533803  .00023955  00000+0  33260-3 0  9991
2 41884  34.9582 355.3147 0007856   5.8929 354.1887 15.55995219526522
CYGFM04                 
1 41885U 16078B   26153.88971164  .00031630  00000+0  36770-3 0  9997
2 41885  34.9336 323.6173 0006403  49.5131 310.6151 15.60660349526760
CYGFM02                 
1 41886U 16078C   26153.85333693  .00036913  00000+0  38352-3 0  9991
2 41886  34.9418 318.8045 0007350  51.3779 308.7605 15.63508394526921
CYGFM01                 
1 41887U 16078D   26153.87019524  .00024789  00000+0  33585-3 0  9999
2 41887  34.9412 356.5208 0007692 359.9087   0.1635 15.56648719526478
CYGFM08                 
1 41888U 16078E   26153.91783528  .00028248  00000+0  34700-3 0  9991
2 41888  34.9442 336.1539 0008486  33.1791 326.9465 15.59219244526748
CYGFM07                 
1 41890U 16078G   26153.87789654  .00029605  00000+0  36240-3 0  9994
2 41890  34.9458 324.7744 0006783  48.8177 311.3132 15.59320598526764
CYGFM03                 
1 41891U 16078H   26153.84882831  .00029517  00000+0  36146-3 0  9990
2 41891  34.9414 326.9091 0006440  34.8919 325.2227 15.59313898526736
FENGYUN 3D              
1 43010U 17072A   26154.61618725  .00000174  00000+0  10405-3 0  9993
2 43010  99.0120 128.7939 0002619  83.9522 276.1952 14.19736625443060
NOAA 20 (JPSS-1)        
1 43013U 17073A   26154.53842470  .00000066  00000+0  52078-4 0  9997
2 43013  98.7770  94.1226 0000675  35.7211 324.4010 14.19509052442530
GOES 17                 
1 43226U 18022A   26154.54919836 -.00000171  00000+0  00000+0 0  9991
2 43226   0.9032  85.9655 0000778   2.7614 271.5044  1.00271894 30281
SENTINEL-3B             
1 43437U 18039A   26154.16373391  .00000141  00000+0  76454-4 0  9998
2 43437  98.6251 221.8966 0000991  74.7184 285.4106 14.26737564422120
FENGYUN 2H              
1 43491U 18050A   26154.58273851 -.00000120  00000+0  00000+0 0  9994
2 43491   2.9968  79.2299 0001423 127.7023 334.3512  1.00272094 29307
METOP-C                 
1 43689U 18087A   26154.55364899  .00000135  00000+0  81311-4 0  9997
2 43689  98.6649 214.4058 0001226 144.0868 216.0392 14.21508319392898
GEO-KOMPSAT-2A          
1 43823U 18100A   26154.62265001 -.00000332  00000+0  00000+0 0  9997
2 43823   0.0519 141.1974 0002334 302.8468 160.4568  1.00270123 27495
METEOR-M2 2             
1 44387U 19038A   26154.61690115 -.00000097  00000+0 -22141-4 0  9995
2 44387  98.9137 141.7025 0002356  68.1109 292.0320 14.24361364359364
ARKTIKA-M 1             
1 47719U 21016A   26153.03917935 -.00000200  00000+0  00000+0 0  9993
2 47719  63.2379  59.8266 7283239 269.8643  14.6915  2.00628509 38489
FENGYUN 3E              
1 49008U 21062A   26154.60157192 -.00000104  00000+0 -28130-4 0  9995
2 49008  98.7486 158.1608 0002625 108.0671 252.0791 14.19902673254652
GOES 18                 
1 51850U 22021A   26154.63318422  .00000109  00000+0  00000+0 0  9991
2 51850   0.0408 139.8837 0000606 335.2948 227.8592  1.00271460  6459
NOAA 21 (JPSS-2)        
1 54234U 22150A   26154.57182450  .00000085  00000+0  61159-4 0  9996
2 54234  98.7058  93.5898 0000874 190.7258 169.3900 14.19562878184619
METEOSAT-12 (MTG-I1)    
1 54743U 22170C   26154.28169836  .00000003  00000+0  00000+0 0  9997
2 54743   0.7233  20.6199 0003606  68.7129 263.4032  1.00271294 12835
TIANMU-1 03             
1 55973U 23039A   26154.59679350  .00016379  00000+0  32738-3 0  9999
2 55973  97.5229 328.0385 0004020 132.3130 227.8461 15.46876246178738
TIANMU-1 04             
1 55974U 23039B   26154.52679218  .00017159  00000+0  33600-3 0  9992
2 55974  97.5165 327.1187 0004735 130.8377 229.3284 15.47457717178736
TIANMU-1 05             
1 55975U 23039C   26154.64160353  .00016308  00000+0  32676-3 0  9998
2 55975  97.5213 327.7047 0003513 148.1994 211.9468 15.46807525178727
TIANMU-1 06             
1 55976U 23039D   26154.59401481  .00016731  00000+0  32874-3 0  9993
2 55976  97.5218 328.2776 0003932 144.3134 215.8379 15.47368932178748
FENGYUN 3G              
1 56232U 23055A   26154.59645054  .00028736  00000+0  43835-3 0  9990
2 56232  49.9933  56.1112 0005550 141.0291 219.1077 15.54158552177896
METEOR-M2 3             
1 57166U 23091A   26154.60810476  .00000020  00000+0  27327-4 0  9996
2 57166  98.6087 209.8635 0003562 193.0058 167.1030 14.24045657152587
TIANMU-1 07             
1 57399U 23101A   26154.62497231  .00007114  00000+0  25021-3 0  9997
2 57399  97.2594 205.6059 0003201 149.9516 210.1909 15.29641497159576
TIANMU-1 08             
1 57400U 23101B   26154.59165197  .00007047  00000+0  24779-3 0  9993
2 57400  97.2582 205.3460 0004768 148.9888 211.1635 15.29646994159562
TIANMU-1 09             
1 57401U 23101C   26154.57532013  .00007046  00000+0  24762-3 0  9998
2 57401  97.2541 204.7529 0003538 159.1915 200.9470 15.29672260159564
TIANMU-1 10             
1 57402U 23101D   26154.60811685  .00007213  00000+0  25358-3 0  9996
2 57402  97.2620 205.8216 0005121 163.4592 196.6817 15.29643487159562
FENGYUN 3F              
1 57490U 23111A   26154.58580293  .00000076  00000+0  56259-4 0  9994
2 57490  98.6837 224.8475 0001549 103.1581 256.9769 14.19936679146930
ARKTIKA-M 2             
1 58584U 23198A   26152.80817955  .00000145  00000+0  00000+0 0  9990
2 58584  63.2208 156.0807 6898127 267.4735  18.7853  2.00592153 18014
TIANMU-1 11             
1 58645U 23205A   26154.61918661  .00006287  00000+0  24076-3 0  9990
2 58645  97.3447 176.3904 0010389  59.9469 300.2799 15.26845971135453
TIANMU-1 12             
1 58646U 23205B   26154.58921447  .00006548  00000+0  25106-3 0  9998
2 58646  97.3436 176.1194 0008302  47.8091 312.3852 15.26806475135438
TIANMU-1 13             
1 58647U 23205C   26154.62010206  .00006489  00000+0  24996-3 0  9996
2 58647  97.3463 176.4203 0007574  29.7895 330.3773 15.26661455135433
TIANMU-1 14             
1 58648U 23205D   26154.60570505  .00006612  00000+0  25424-3 0  9993
2 58648  97.3400 175.5986 0008543  33.1509 327.0264 15.26706402135431
TIANMU-1 19             
1 58660U 23208A   26154.63117182  .00008921  00000+0  29700-3 0  9997
2 58660  97.4498 270.8650 0004997  21.5570 338.5880 15.31357163135251
TIANMU-1 20             
1 58661U 23208B   26154.61421073  .00009238  00000+0  29616-3 0  9991
2 58661  97.4439 271.4692 0007262  24.5369 335.6218 15.32548880135349
TIANMU-1 21             
1 58662U 23208C   26154.62282096  .00010785  00000+0  32151-3 0  9990
2 58662  97.4498 274.1003 0007103  17.3893 342.7592 15.34822362135488
TIANMU-1 22             
1 58663U 23208D   26154.60847019  .00008853  00000+0  29936-3 0  9991
2 58663  97.4493 270.7895 0004453  48.1581 312.0040 15.30857204135258
TIANMU-1 15             
1 58700U 24004A   26154.59905512  .00006488  00000+0  24838-3 0  9997
2 58700  97.4667 340.7881 0007966  46.9783 313.2122 15.26874396133706
TIANMU-1 16             
1 58701U 24004B   26154.65139208  .00006417  00000+0  24776-3 0  9999
2 58701  97.4614 340.0926 0007055  51.0287 309.1579 15.26600971133714
TIANMU-1 17             
1 58702U 24004C   26154.63684000  .00006044  00000+0  23355-3 0  9991
2 58702  97.4642 340.5580 0006682  56.1393 304.0481 15.26600602133702
TIANMU-1 18             
1 58703U 24004D   26154.61551900  .00005971  00000+0  22905-3 0  9990
2 58703  97.4659 340.7836 0005192  55.0615 305.1111 15.26859574133703
INSAT-3DS               
1 58990U 24033A   26154.58317184 -.00000144  00000+0  00000+0 0  9996
2 58990   0.0163 245.1788 0001649 180.2953 118.5751  1.00271192 46939
METEOR-M2 4             
1 59051U 24039A   26154.60741300  .00000019  00000+0  28127-4 0  9990
2 59051  98.7011 114.0767 0006497 200.7096 159.3820 14.22428023117335
GOES 19                 
1 60133U 24119A   26154.55205837 -.00000236  00000+0  00000+0 0  9993
2 60133   0.0471 137.9796 0000666 348.8528 248.7344  1.00271975  6825
MTG-S1                  
1 64723U 25143A   26154.56627177 -.00000020  00000+0  00000+0 0  9997
2 64723   0.6152 335.9902 0001234  38.1592  78.2599  1.00271533  3282
METOP-SGA1              
1 65159U 25172A   26153.77969102  .00000061  00000+0  47539-4 0  9999
2 65159  98.6649 213.7697 0001014  84.4971 275.6322 14.21507229 41740
FENGYUN 3H              
1 65815U 25219A   26154.44106509  .00000081  00000+0  58743-4 0  9990
2 65815  98.6765  95.4778 0001637  88.4136 271.7228 14.19917857 35431
